{
"type": "FeatureCollection",
"name": "cuenca_aoi",
"crs": { "type": "name", "properties": { "name": "urn:ogc:def:crs:OGC:1.3:CRS84" } },
"features": [
{ "type": "Feature", "properties": { }, "geometry": { "type": "MultiPolygon", "coordinates": [ [ [ [ -103.237797396396729, 20.633564726641843 ], [ -103.237797396396729, 20.633147498804611 ], [ -103.236963756796769, 20.633147498804611 ], [ -103.236963756796769, 20.632730270967379 ], [ -103.236546936996788, 20.632730270967379 ], [ -103.236546936996788, 20.631895815292914 ], [ -103.236130117196808, 20.631895815292914 ], [ -103.236130117196808, 20.63106135961845 ], [ -103.236546936996788, 20.63106135961845 ], [ -103.236546936996788, 20.630644131781217 ], [ -103.237797396396729, 20.630644131781217 ], [ -103.237797396396729, 20.62939244826952 ], [ -103.238214216196695, 20.62939244826952 ], [ -103.238214216196695, 20.628557992595056 ], [ -103.238631035996676, 20.628557992595056 ], [ -103.238631035996676, 20.627723536920591 ], [ -103.238214216196695, 20.627723536920591 ], [ -103.238214216196695, 20.627306309083359 ], [ -103.238631035996676, 20.627306309083359 ], [ -103.238631035996676, 20.625220169897197 ], [ -103.239047855796656, 20.625220169897197 ], [ -103.239047855796656, 20.624385714222733 ], [ -103.239464675596636, 20.624385714222733 ], [ -103.239464675596636, 20.622716802873803 ], [ -103.239881495396617, 20.622716802873803 ], [ -103.239881495396617, 20.621047891524874 ], [ -103.238631035996676, 20.621047891524874 ], [ -103.238631035996676, 20.62021343585041 ], [ -103.238214216196695, 20.62021343585041 ], [ -103.238214216196695, 20.619378980175945 ], [ -103.236963756796769, 20.619378980175945 ], [ -103.236963756796769, 20.618961752338713 ], [ -103.236546936996788, 20.618961752338713 ], [ -103.236546936996788, 20.61854452450148 ], [ -103.236130117196808, 20.61854452450148 ], [ -103.236130117196808, 20.618127296664248 ], [ -103.235713297396828, 20.618127296664248 ], [ -103.235713297396828, 20.617710068827016 ], [ -103.235296477596862, 20.617710068827016 ], [ -103.235296477596862, 20.617292840989784 ], [ -103.234879657796881, 20.617292840989784 ], [ -103.234879657796881, 20.616875613152551 ], [ -103.234462837996901, 20.616875613152551 ], [ -103.234462837996901, 20.616458385315319 ], [ -103.23321237859696, 20.616458385315319 ], [ -103.23321237859696, 20.616041157478087 ], [ -103.232795558796994, 20.616041157478087 ], [ -103.232795558796994, 20.614372246129157 ], [ -103.231545099397053, 20.614372246129157 ], [ -103.231545099397053, 20.613955018291925 ], [ -103.231128279597073, 20.613955018291925 ], [ -103.231128279597073, 20.612703334780228 ], [ -103.230294639997126, 20.612703334780228 ], [ -103.230294639997126, 20.611868879105764 ], [ -103.228627360797205, 20.611868879105764 ], [ -103.228627360797205, 20.611451651268531 ], [ -103.226960081597298, 20.611451651268531 ], [ -103.226960081597298, 20.611868879105764 ], [ -103.226126441997337, 20.611868879105764 ], [ -103.226126441997337, 20.611451651268531 ], [ -103.225292802397391, 20.611451651268531 ], [ -103.225292802397391, 20.611034423431299 ], [ -103.22487598259741, 20.611034423431299 ], [ -103.22487598259741, 20.611451651268531 ], [ -103.22404234299745, 20.611451651268531 ], [ -103.22404234299745, 20.611868879105764 ], [ -103.220707784597622, 20.611868879105764 ], [ -103.220707784597622, 20.611451651268531 ], [ -103.220290964797655, 20.611451651268531 ], [ -103.220290964797655, 20.611034423431299 ], [ -103.218623685597734, 20.611034423431299 ], [ -103.218623685597734, 20.611451651268531 ], [ -103.218206865797754, 20.611451651268531 ], [ -103.218206865797754, 20.611034423431299 ], [ -103.216122766797866, 20.611034423431299 ], [ -103.216122766797866, 20.610617195594067 ], [ -103.21487230739794, 20.610617195594067 ], [ -103.21487230739794, 20.611034423431299 ], [ -103.211954568798092, 20.611034423431299 ], [ -103.211954568798092, 20.611451651268531 ], [ -103.210704109398151, 20.611451651268531 ], [ -103.210704109398151, 20.611868879105764 ], [ -103.210287289598185, 20.611868879105764 ], [ -103.210287289598185, 20.612286106942996 ], [ -103.208620010398263, 20.612286106942996 ], [ -103.208620010398263, 20.611868879105764 ], [ -103.208203190598283, 20.611868879105764 ], [ -103.208203190598283, 20.612286106942996 ], [ -103.207369550998337, 20.612286106942996 ], [ -103.207369550998337, 20.612703334780228 ], [ -103.206952731198356, 20.612703334780228 ], [ -103.206952731198356, 20.612286106942996 ], [ -103.204034992598508, 20.612286106942996 ], [ -103.204034992598508, 20.611868879105764 ], [ -103.202784533198582, 20.611868879105764 ], [ -103.202784533198582, 20.611034423431299 ], [ -103.20111725399866, 20.611034423431299 ], [ -103.20111725399866, 20.610199967756834 ], [ -103.20070043419868, 20.610199967756834 ], [ -103.20070043419868, 20.60936551208237 ], [ -103.200283614398714, 20.60936551208237 ], [ -103.200283614398714, 20.608113828570673 ], [ -103.20070043419868, 20.608113828570673 ], [ -103.20070043419868, 20.607279372896208 ], [ -103.20111725399866, 20.607279372896208 ], [ -103.20111725399866, 20.606862145058976 ], [ -103.201950893598621, 20.606862145058976 ], [ -103.201950893598621, 20.606027689384511 ], [ -103.201534073798641, 20.606027689384511 ], [ -103.201534073798641, 20.605610461547279 ], [ -103.20070043419868, 20.605610461547279 ], [ -103.20070043419868, 20.604358778035582 ], [ -103.200283614398714, 20.604358778035582 ], [ -103.200283614398714, 20.60394155019835 ], [ -103.199866794598734, 20.60394155019835 ], [ -103.199866794598734, 20.603524322361118 ], [ -103.199449974798753, 20.603524322361118 ], [ -103.199449974798753, 20.603107094523885 ], [ -103.199033154998773, 20.603107094523885 ], [ -103.199033154998773, 20.602689866686653 ], [ -103.199449974798753, 20.602689866686653 ], [ -103.199449974798753, 20.602272638849421 ], [ -103.199033154998773, 20.602272638849421 ], [ -103.199033154998773, 20.601438183174956 ], [ -103.198199515398812, 20.601438183174956 ], [ -103.198199515398812, 20.601020955337724 ], [ -103.197782695598846, 20.601020955337724 ], [ -103.197782695598846, 20.601438183174956 ], [ -103.197365875798866, 20.601438183174956 ], [ -103.197365875798866, 20.601020955337724 ], [ -103.196115416398925, 20.601020955337724 ], [ -103.196115416398925, 20.600603727500491 ], [ -103.195281776798979, 20.600603727500491 ], [ -103.195281776798979, 20.600186499663259 ], [ -103.194864956998998, 20.600186499663259 ], [ -103.194864956998998, 20.599769271826027 ], [ -103.194031317399038, 20.599769271826027 ], [ -103.194031317399038, 20.599352043988794 ], [ -103.193614497599057, 20.599352043988794 ], [ -103.193614497599057, 20.598100360477098 ], [ -103.194031317399038, 20.598100360477098 ], [ -103.194031317399038, 20.596431449128168 ], [ -103.193614497599057, 20.596431449128168 ], [ -103.193614497599057, 20.595179765616471 ], [ -103.194031317399038, 20.595179765616471 ], [ -103.194031317399038, 20.594762537779239 ], [ -103.194448137199018, 20.594762537779239 ], [ -103.194448137199018, 20.591841942918613 ], [ -103.194031317399038, 20.591841942918613 ], [ -103.194031317399038, 20.590590259406916 ], [ -103.193614497599057, 20.590590259406916 ], [ -103.193614497599057, 20.589755803732452 ], [ -103.193197677799091, 20.589755803732452 ], [ -103.193197677799091, 20.589338575895219 ], [ -103.194031317399038, 20.589338575895219 ], [ -103.194031317399038, 20.588921348057987 ], [ -103.194864956998998, 20.588921348057987 ], [ -103.194864956998998, 20.588504120220755 ], [ -103.195281776798979, 20.588504120220755 ], [ -103.195281776798979, 20.588086892383522 ], [ -103.195698596598945, 20.588086892383522 ], [ -103.195698596598945, 20.58766966454629 ], [ -103.196949055998886, 20.58766966454629 ], [ -103.196949055998886, 20.586835208871825 ], [ -103.197782695598846, 20.586835208871825 ], [ -103.197782695598846, 20.586417981034593 ], [ -103.199033154998773, 20.586417981034593 ], [ -103.199033154998773, 20.586000753197361 ], [ -103.199449974798753, 20.586000753197361 ], [ -103.199449974798753, 20.585583525360128 ], [ -103.200283614398714, 20.585583525360128 ], [ -103.200283614398714, 20.585166297522896 ], [ -103.20070043419868, 20.585166297522896 ], [ -103.20070043419868, 20.584749069685664 ], [ -103.201534073798641, 20.584749069685664 ], [ -103.201534073798641, 20.584331841848432 ], [ -103.202784533198582, 20.584331841848432 ], [ -103.202784533198582, 20.583914614011199 ], [ -103.204034992598508, 20.583914614011199 ], [ -103.204034992598508, 20.583497386173967 ], [ -103.204451812398489, 20.583497386173967 ], [ -103.204451812398489, 20.583080158336735 ], [ -103.205285451998449, 20.583080158336735 ], [ -103.205285451998449, 20.582662930499502 ], [ -103.205702271798415, 20.582662930499502 ], [ -103.205702271798415, 20.58224570266227 ], [ -103.206535911398376, 20.58224570266227 ], [ -103.206535911398376, 20.582662930499502 ], [ -103.208620010398263, 20.582662930499502 ], [ -103.208620010398263, 20.577238968615482 ], [ -103.209036830198244, 20.577238968615482 ], [ -103.209036830198244, 20.57682174077825 ], [ -103.208620010398263, 20.57682174077825 ], [ -103.208620010398263, 20.576404512941018 ], [ -103.208203190598283, 20.576404512941018 ], [ -103.208203190598283, 20.575987285103785 ], [ -103.207369550998337, 20.575987285103785 ], [ -103.207369550998337, 20.575570057266553 ], [ -103.206119091598396, 20.575570057266553 ], [ -103.206119091598396, 20.575152829429321 ], [ -103.205285451998449, 20.575152829429321 ], [ -103.205285451998449, 20.574735601592089 ], [ -103.204451812398489, 20.574735601592089 ], [ -103.204451812398489, 20.574318373754856 ], [ -103.204034992598508, 20.574318373754856 ], [ -103.204034992598508, 20.573901145917624 ], [ -103.203201352998548, 20.573901145917624 ], [ -103.203201352998548, 20.573483918080392 ], [ -103.202784533198582, 20.573483918080392 ], [ -103.202784533198582, 20.570980551056998 ], [ -103.202367713398601, 20.570980551056998 ], [ -103.202367713398601, 20.568894411870836 ], [ -103.201950893598621, 20.568894411870836 ], [ -103.201950893598621, 20.568059956196372 ], [ -103.201534073798641, 20.568059956196372 ], [ -103.201534073798641, 20.567642728359139 ], [ -103.20070043419868, 20.567642728359139 ], [ -103.20070043419868, 20.566808272684675 ], [ -103.201534073798641, 20.566808272684675 ], [ -103.201534073798641, 20.566391044847443 ], [ -103.201950893598621, 20.566391044847443 ], [ -103.201950893598621, 20.56597381701021 ], [ -103.202784533198582, 20.56597381701021 ], [ -103.202784533198582, 20.565556589172978 ], [ -103.203201352998548, 20.565556589172978 ], [ -103.203201352998548, 20.564722133498513 ], [ -103.202784533198582, 20.564722133498513 ], [ -103.202784533198582, 20.564304905661281 ], [ -103.202367713398601, 20.564304905661281 ], [ -103.202367713398601, 20.563887677824049 ], [ -103.201950893598621, 20.563887677824049 ], [ -103.201950893598621, 20.563470449986816 ], [ -103.200283614398714, 20.563470449986816 ], [ -103.200283614398714, 20.562635994312352 ], [ -103.20070043419868, 20.562635994312352 ], [ -103.20070043419868, 20.561384310800655 ], [ -103.201950893598621, 20.561384310800655 ], [ -103.201950893598621, 20.560132627288958 ], [ -103.202784533198582, 20.560132627288958 ], [ -103.202784533198582, 20.559298171614493 ], [ -103.202367713398601, 20.559298171614493 ], [ -103.202367713398601, 20.558880943777261 ], [ -103.202784533198582, 20.558880943777261 ], [ -103.202784533198582, 20.557629260265564 ], [ -103.203201352998548, 20.557629260265564 ], [ -103.203201352998548, 20.556377576753867 ], [ -103.203618172798528, 20.556377576753867 ], [ -103.203618172798528, 20.555960348916635 ], [ -103.203201352998548, 20.555960348916635 ], [ -103.203201352998548, 20.555543121079403 ], [ -103.202367713398601, 20.555543121079403 ], [ -103.202367713398601, 20.55512589324217 ], [ -103.201950893598621, 20.55512589324217 ], [ -103.201950893598621, 20.554291437567706 ], [ -103.202367713398601, 20.554291437567706 ], [ -103.202367713398601, 20.553456981893241 ], [ -103.201950893598621, 20.553456981893241 ], [ -103.201950893598621, 20.552205298381544 ], [ -103.201534073798641, 20.552205298381544 ], [ -103.201534073798641, 20.551788070544312 ], [ -103.201950893598621, 20.551788070544312 ], [ -103.201950893598621, 20.550953614869847 ], [ -103.202367713398601, 20.550953614869847 ], [ -103.202367713398601, 20.550536387032615 ], [ -103.201950893598621, 20.550536387032615 ], [ -103.201950893598621, 20.54970193135815 ], [ -103.202367713398601, 20.54970193135815 ], [ -103.202367713398601, 20.549284703520918 ], [ -103.202784533198582, 20.549284703520918 ], [ -103.202784533198582, 20.548867475683686 ], [ -103.203201352998548, 20.548867475683686 ], [ -103.203201352998548, 20.548450247846453 ], [ -103.203618172798528, 20.548450247846453 ], [ -103.203618172798528, 20.548033020009221 ], [ -103.204451812398489, 20.548033020009221 ], [ -103.204451812398489, 20.547615792171989 ], [ -103.206535911398376, 20.547615792171989 ], [ -103.206535911398376, 20.548033020009221 ], [ -103.207786370798317, 20.548033020009221 ], [ -103.207786370798317, 20.547615792171989 ], [ -103.208620010398263, 20.547615792171989 ], [ -103.208620010398263, 20.547198564334757 ], [ -103.209870469798204, 20.547198564334757 ], [ -103.209870469798204, 20.546781336497524 ], [ -103.210704109398151, 20.546781336497524 ], [ -103.210704109398151, 20.546364108660292 ], [ -103.211120929198131, 20.546364108660292 ], [ -103.211120929198131, 20.546781336497524 ], [ -103.211537748998111, 20.546781336497524 ], [ -103.211537748998111, 20.546364108660292 ], [ -103.212788208398052, 20.546364108660292 ], [ -103.212788208398052, 20.545529652985827 ], [ -103.213205028198018, 20.545529652985827 ], [ -103.213205028198018, 20.545112425148595 ], [ -103.213621847997999, 20.545112425148595 ], [ -103.213621847997999, 20.54427796947413 ], [ -103.214455487597959, 20.54427796947413 ], [ -103.214455487597959, 20.543860741636898 ], [ -103.218623685597734, 20.543860741636898 ], [ -103.218623685597734, 20.543443513799666 ], [ -103.219040505397714, 20.543443513799666 ], [ -103.219040505397714, 20.542191830287969 ], [ -103.219457325197695, 20.542191830287969 ], [ -103.219457325197695, 20.539688463264575 ], [ -103.219040505397714, 20.539688463264575 ], [ -103.219040505397714, 20.539271235427343 ], [ -103.218623685597734, 20.539271235427343 ], [ -103.218623685597734, 20.538019551915646 ], [ -103.219040505397714, 20.538019551915646 ], [ -103.219040505397714, 20.536350640566717 ], [ -103.219457325197695, 20.536350640566717 ], [ -103.219457325197695, 20.53509895705502 ], [ -103.219874144997675, 20.53509895705502 ], [ -103.219874144997675, 20.534264501380555 ], [ -103.220290964797655, 20.534264501380555 ], [ -103.220290964797655, 20.533012817868858 ], [ -103.220707784597622, 20.533012817868858 ], [ -103.220707784597622, 20.532595590031626 ], [ -103.220290964797655, 20.532595590031626 ], [ -103.220290964797655, 20.531761134357161 ], [ -103.219874144997675, 20.531761134357161 ], [ -103.219874144997675, 20.531343906519929 ], [ -103.220290964797655, 20.531343906519929 ], [ -103.220290964797655, 20.530926678682697 ], [ -103.219874144997675, 20.530926678682697 ], [ -103.219874144997675, 20.530509450845464 ], [ -103.218206865797754, 20.530509450845464 ], [ -103.218206865797754, 20.530092223008232 ], [ -103.216122766797866, 20.530092223008232 ], [ -103.216122766797866, 20.530509450845464 ], [ -103.215705946997886, 20.530509450845464 ], [ -103.215705946997886, 20.531343906519929 ], [ -103.21528912719792, 20.531343906519929 ], [ -103.21528912719792, 20.531761134357161 ], [ -103.21487230739794, 20.531761134357161 ], [ -103.21487230739794, 20.531343906519929 ], [ -103.213621847997999, 20.531343906519929 ], [ -103.213621847997999, 20.530926678682697 ], [ -103.212371388598072, 20.530926678682697 ], [ -103.212371388598072, 20.530509450845464 ], [ -103.211954568798092, 20.530509450845464 ], [ -103.211954568798092, 20.530092223008232 ], [ -103.210704109398151, 20.530092223008232 ], [ -103.210704109398151, 20.529674995171 ], [ -103.209036830198244, 20.529674995171 ], [ -103.209036830198244, 20.529257767333768 ], [ -103.208203190598283, 20.529257767333768 ], [ -103.208203190598283, 20.528840539496535 ], [ -103.207369550998337, 20.528840539496535 ], [ -103.207369550998337, 20.528423311659303 ], [ -103.206952731198356, 20.528423311659303 ], [ -103.206952731198356, 20.528006083822071 ], [ -103.205702271798415, 20.528006083822071 ], [ -103.205702271798415, 20.527588855984838 ], [ -103.204868632198469, 20.527588855984838 ], [ -103.204868632198469, 20.527171628147606 ], [ -103.203618172798528, 20.527171628147606 ], [ -103.203618172798528, 20.526754400310374 ], [ -103.202784533198582, 20.526754400310374 ], [ -103.202784533198582, 20.527171628147606 ], [ -103.201534073798641, 20.527171628147606 ], [ -103.201534073798641, 20.526754400310374 ], [ -103.199866794598734, 20.526754400310374 ], [ -103.199866794598734, 20.526337172473141 ], [ -103.199449974798753, 20.526337172473141 ], [ -103.199449974798753, 20.525919944635909 ], [ -103.198616335198793, 20.525919944635909 ], [ -103.198616335198793, 20.525502716798677 ], [ -103.198199515398812, 20.525502716798677 ], [ -103.198199515398812, 20.525085488961444 ], [ -103.197782695598846, 20.525085488961444 ], [ -103.197782695598846, 20.524668261124212 ], [ -103.196115416398925, 20.524668261124212 ], [ -103.196115416398925, 20.52425103328698 ], [ -103.194864956998998, 20.52425103328698 ], [ -103.194864956998998, 20.524668261124212 ], [ -103.194031317399038, 20.524668261124212 ], [ -103.194031317399038, 20.52425103328698 ], [ -103.192364038199131, 20.52425103328698 ], [ -103.192364038199131, 20.523833805449748 ], [ -103.190279939199243, 20.523833805449748 ], [ -103.190279939199243, 20.523416577612515 ], [ -103.189446299599282, 20.523416577612515 ], [ -103.189446299599282, 20.522999349775283 ], [ -103.189029479799302, 20.522999349775283 ], [ -103.189029479799302, 20.522582121938051 ], [ -103.188612659999322, 20.522582121938051 ], [ -103.188612659999322, 20.521747666263586 ], [ -103.188195840199356, 20.521747666263586 ], [ -103.188195840199356, 20.521330438426354 ], [ -103.187779020399375, 20.521330438426354 ], [ -103.187779020399375, 20.520913210589121 ], [ -103.187362200599395, 20.520913210589121 ], [ -103.187362200599395, 20.520495982751889 ], [ -103.186945380799415, 20.520495982751889 ], [ -103.186945380799415, 20.520078754914657 ], [ -103.186528560999434, 20.520078754914657 ], [ -103.186528560999434, 20.519244299240192 ], [ -103.186111741199454, 20.519244299240192 ], [ -103.186111741199454, 20.518409843565728 ], [ -103.186528560999434, 20.518409843565728 ], [ -103.186528560999434, 20.515906476542334 ], [ -103.186111741199454, 20.515906476542334 ], [ -103.186111741199454, 20.515489248705101 ], [ -103.186528560999434, 20.515489248705101 ], [ -103.186528560999434, 20.515072020867869 ], [ -103.186945380799415, 20.515072020867869 ], [ -103.186945380799415, 20.514654793030637 ], [ -103.187362200599395, 20.514654793030637 ], [ -103.187362200599395, 20.514237565193405 ], [ -103.186528560999434, 20.514237565193405 ], [ -103.186528560999434, 20.513820337356172 ], [ -103.186111741199454, 20.513820337356172 ], [ -103.186111741199454, 20.51340310951894 ], [ -103.185694921399488, 20.51340310951894 ], [ -103.185694921399488, 20.513820337356172 ], [ -103.184861281799527, 20.513820337356172 ], [ -103.184861281799527, 20.51340310951894 ], [ -103.184027642199567, 20.51340310951894 ], [ -103.184027642199567, 20.511734198170011 ], [ -103.184444461999547, 20.511734198170011 ], [ -103.184444461999547, 20.510482514658314 ], [ -103.184861281799527, 20.510482514658314 ], [ -103.184861281799527, 20.510065286821082 ], [ -103.185278101599508, 20.510065286821082 ], [ -103.185278101599508, 20.509230831146617 ], [ -103.184444461999547, 20.509230831146617 ], [ -103.184444461999547, 20.508813603309385 ], [ -103.184027642199567, 20.508813603309385 ], [ -103.184027642199567, 20.508396375472152 ], [ -103.183610822399586, 20.508396375472152 ], [ -103.183610822399586, 20.506727464123223 ], [ -103.184027642199567, 20.506727464123223 ], [ -103.184027642199567, 20.505893008448759 ], [ -103.183610822399586, 20.505893008448759 ], [ -103.183610822399586, 20.505475780611526 ], [ -103.18319400259962, 20.505475780611526 ], [ -103.18319400259962, 20.505058552774294 ], [ -103.183610822399586, 20.505058552774294 ], [ -103.183610822399586, 20.502972413588132 ], [ -103.184027642199567, 20.502972413588132 ], [ -103.184027642199567, 20.5025551857509 ], [ -103.184444461999547, 20.5025551857509 ], [ -103.184444461999547, 20.502137957913668 ], [ -103.180693083799753, 20.502137957913668 ], [ -103.180693083799753, 20.501303502239203 ], [ -103.180276263999772, 20.501303502239203 ], [ -103.180276263999772, 20.500051818727506 ], [ -103.180693083799753, 20.500051818727506 ], [ -103.180693083799753, 20.499634590890274 ], [ -103.179859444199792, 20.499634590890274 ], [ -103.179859444199792, 20.499217363053042 ], [ -103.178192164999885, 20.499217363053042 ], [ -103.178192164999885, 20.498800135215809 ], [ -103.176108065999983, 20.498800135215809 ], [ -103.176108065999983, 20.498382907378577 ], [ -103.175691246200017, 20.498382907378577 ], [ -103.175691246200017, 20.497965679541345 ], [ -103.175274426400037, 20.497965679541345 ], [ -103.175274426400037, 20.497548451704112 ], [ -103.174440786800076, 20.497548451704112 ], [ -103.174440786800076, 20.496713996029648 ], [ -103.17319032740015, 20.496713996029648 ], [ -103.17319032740015, 20.495879540355183 ], [ -103.173607147200116, 20.495879540355183 ], [ -103.173607147200116, 20.495462312517951 ], [ -103.172773507600169, 20.495462312517951 ], [ -103.172773507600169, 20.495045084680719 ], [ -103.17319032740015, 20.495045084680719 ], [ -103.17319032740015, 20.493376173331789 ], [ -103.172356687800189, 20.493376173331789 ], [ -103.172356687800189, 20.492958945494557 ], [ -103.172773507600169, 20.492958945494557 ], [ -103.172773507600169, 20.492541717657325 ], [ -103.17319032740015, 20.492541717657325 ], [ -103.17319032740015, 20.491290034145628 ], [ -103.172773507600169, 20.491290034145628 ], [ -103.172773507600169, 20.490872806308396 ], [ -103.171939868000209, 20.490872806308396 ], [ -103.171939868000209, 20.491290034145628 ], [ -103.169855769000321, 20.491290034145628 ], [ -103.169855769000321, 20.49170726198286 ], [ -103.167771670000434, 20.49170726198286 ], [ -103.167771670000434, 20.491290034145628 ], [ -103.167354850200454, 20.491290034145628 ], [ -103.167354850200454, 20.490038350633931 ], [ -103.165270751200566, 20.490038350633931 ], [ -103.165270751200566, 20.490455578471163 ], [ -103.164437111600606, 20.490455578471163 ], [ -103.164437111600606, 20.49170726198286 ], [ -103.164020291800625, 20.49170726198286 ], [ -103.164020291800625, 20.493376173331789 ], [ -103.163603472000645, 20.493376173331789 ], [ -103.163603472000645, 20.494210629006254 ], [ -103.163186652200679, 20.494210629006254 ], [ -103.163186652200679, 20.494627856843486 ], [ -103.162769832400699, 20.494627856843486 ], [ -103.162769832400699, 20.497548451704112 ], [ -103.162353012600718, 20.497548451704112 ], [ -103.162353012600718, 20.498800135215809 ], [ -103.161102553200777, 20.498800135215809 ], [ -103.161102553200777, 20.499217363053042 ], [ -103.160268913600831, 20.499217363053042 ], [ -103.160268913600831, 20.499634590890274 ], [ -103.15943527400087, 20.499634590890274 ], [ -103.15943527400087, 20.500051818727506 ], [ -103.15860163440091, 20.500051818727506 ], [ -103.15860163440091, 20.500469046564739 ], [ -103.156934355201003, 20.500469046564739 ], [ -103.156934355201003, 20.500886274401971 ], [ -103.156100715601042, 20.500886274401971 ], [ -103.156100715601042, 20.500469046564739 ], [ -103.155267076001095, 20.500469046564739 ], [ -103.155267076001095, 20.500886274401971 ], [ -103.154850256201115, 20.500886274401971 ], [ -103.154850256201115, 20.501303502239203 ], [ -103.154433436401135, 20.501303502239203 ], [ -103.154433436401135, 20.500051818727506 ], [ -103.155267076001095, 20.500051818727506 ], [ -103.155267076001095, 20.499634590890274 ], [ -103.154433436401135, 20.499634590890274 ], [ -103.154433436401135, 20.478773199028659 ], [ -103.178608984799851, 20.478773199028659 ], [ -103.178608984799851, 20.479190426865891 ], [ -103.180693083799753, 20.479190426865891 ], [ -103.180693083799753, 20.478773199028659 ], [ -103.181109903599719, 20.478773199028659 ], [ -103.181109903599719, 20.479190426865891 ], [ -103.181526723399699, 20.479190426865891 ], [ -103.181526723399699, 20.479607654703123 ], [ -103.18319400259962, 20.479607654703123 ], [ -103.18319400259962, 20.480024882540356 ], [ -103.183610822399586, 20.480024882540356 ], [ -103.183610822399586, 20.480442110377588 ], [ -103.184444461999547, 20.480442110377588 ], [ -103.184444461999547, 20.48085933821482 ], [ -103.185278101599508, 20.48085933821482 ], [ -103.185278101599508, 20.480442110377588 ], [ -103.185694921399488, 20.480442110377588 ], [ -103.185694921399488, 20.480024882540356 ], [ -103.186111741199454, 20.480024882540356 ], [ -103.186111741199454, 20.479607654703123 ], [ -103.188195840199356, 20.479607654703123 ], [ -103.188195840199356, 20.478773199028659 ], [ -103.192780857999111, 20.478773199028659 ], [ -103.192780857999111, 20.479190426865891 ], [ -103.196115416398925, 20.479190426865891 ], [ -103.196115416398925, 20.479607654703123 ], [ -103.197365875798866, 20.479607654703123 ], [ -103.197365875798866, 20.479190426865891 ], [ -103.198616335198793, 20.479190426865891 ], [ -103.198616335198793, 20.479607654703123 ], [ -103.200283614398714, 20.479607654703123 ], [ -103.200283614398714, 20.479190426865891 ], [ -103.201950893598621, 20.479190426865891 ], [ -103.201950893598621, 20.480024882540356 ], [ -103.204034992598508, 20.480024882540356 ], [ -103.204034992598508, 20.480442110377588 ], [ -103.204868632198469, 20.480442110377588 ], [ -103.204868632198469, 20.481276566052053 ], [ -103.204034992598508, 20.481276566052053 ], [ -103.204034992598508, 20.482945477400982 ], [ -103.205285451998449, 20.482945477400982 ], [ -103.205285451998449, 20.48252824956375 ], [ -103.207369550998337, 20.48252824956375 ], [ -103.207369550998337, 20.481693793889285 ], [ -103.207786370798317, 20.481693793889285 ], [ -103.207786370798317, 20.480024882540356 ], [ -103.208203190598283, 20.480024882540356 ], [ -103.208203190598283, 20.479190426865891 ], [ -103.208620010398263, 20.479190426865891 ], [ -103.208620010398263, 20.478773199028659 ], [ -103.209870469798204, 20.478773199028659 ], [ -103.209870469798204, 20.478355971191426 ], [ -103.210287289598185, 20.478355971191426 ], [ -103.210287289598185, 20.478773199028659 ], [ -103.210704109398151, 20.478773199028659 ], [ -103.210704109398151, 20.479190426865891 ], [ -103.211537748998111, 20.479190426865891 ], [ -103.211537748998111, 20.478773199028659 ], [ -103.21487230739794, 20.478773199028659 ], [ -103.21487230739794, 20.48085933821482 ], [ -103.21528912719792, 20.48085933821482 ], [ -103.21528912719792, 20.481276566052053 ], [ -103.215705946997886, 20.481276566052053 ], [ -103.215705946997886, 20.481693793889285 ], [ -103.216539586597847, 20.481693793889285 ], [ -103.216539586597847, 20.48252824956375 ], [ -103.217373226197807, 20.48252824956375 ], [ -103.217373226197807, 20.483362705238214 ], [ -103.217790045997788, 20.483362705238214 ], [ -103.217790045997788, 20.483779933075446 ], [ -103.218623685597734, 20.483779933075446 ], [ -103.218623685597734, 20.483362705238214 ], [ -103.219040505397714, 20.483362705238214 ], [ -103.219040505397714, 20.482945477400982 ], [ -103.219874144997675, 20.482945477400982 ], [ -103.219874144997675, 20.48252824956375 ], [ -103.220707784597622, 20.48252824956375 ], [ -103.220707784597622, 20.482111021726517 ], [ -103.221124604397602, 20.482111021726517 ], [ -103.221124604397602, 20.481276566052053 ], [ -103.221541424197582, 20.481276566052053 ], [ -103.221541424197582, 20.48085933821482 ], [ -103.222375063797543, 20.48085933821482 ], [ -103.222375063797543, 20.480442110377588 ], [ -103.223208703397489, 20.480442110377588 ], [ -103.223208703397489, 20.480024882540356 ], [ -103.22487598259741, 20.480024882540356 ], [ -103.22487598259741, 20.479607654703123 ], [ -103.225709622197357, 20.479607654703123 ], [ -103.225709622197357, 20.480024882540356 ], [ -103.226543261797318, 20.480024882540356 ], [ -103.226543261797318, 20.479607654703123 ], [ -103.228627360797205, 20.479607654703123 ], [ -103.228627360797205, 20.480024882540356 ], [ -103.229044180597185, 20.480024882540356 ], [ -103.229044180597185, 20.479607654703123 ], [ -103.229461000397166, 20.479607654703123 ], [ -103.229461000397166, 20.480024882540356 ], [ -103.230711459797092, 20.480024882540356 ], [ -103.230711459797092, 20.48085933821482 ], [ -103.234046018196921, 20.48085933821482 ], [ -103.234046018196921, 20.482111021726517 ], [ -103.235296477596862, 20.482111021726517 ], [ -103.235296477596862, 20.48252824956375 ], [ -103.236130117196808, 20.48252824956375 ], [ -103.236130117196808, 20.482945477400982 ], [ -103.236963756796769, 20.482945477400982 ], [ -103.236963756796769, 20.48252824956375 ], [ -103.238631035996676, 20.48252824956375 ], [ -103.238631035996676, 20.482111021726517 ], [ -103.239047855796656, 20.482111021726517 ], [ -103.239047855796656, 20.48252824956375 ], [ -103.239881495396617, 20.48252824956375 ], [ -103.239881495396617, 20.482111021726517 ], [ -103.240715134996563, 20.482111021726517 ], [ -103.240715134996563, 20.481276566052053 ], [ -103.241131954796543, 20.481276566052053 ], [ -103.241131954796543, 20.48085933821482 ], [ -103.241548774596524, 20.48085933821482 ], [ -103.241548774596524, 20.480442110377588 ], [ -103.243216053796431, 20.480442110377588 ], [ -103.243216053796431, 20.480024882540356 ], [ -103.244883332996352, 20.480024882540356 ], [ -103.244883332996352, 20.479607654703123 ], [ -103.245300152796332, 20.479607654703123 ], [ -103.245300152796332, 20.479190426865891 ], [ -103.246133792396279, 20.479190426865891 ], [ -103.246133792396279, 20.478773199028659 ], [ -103.24738425179622, 20.478773199028659 ], [ -103.24738425179622, 20.479190426865891 ], [ -103.248634711196146, 20.479190426865891 ], [ -103.248634711196146, 20.478773199028659 ], [ -103.249468350796107, 20.478773199028659 ], [ -103.249468350796107, 20.479190426865891 ], [ -103.249885170596087, 20.479190426865891 ], [ -103.249885170596087, 20.478773199028659 ], [ -103.252386089395955, 20.478773199028659 ], [ -103.252386089395955, 20.479190426865891 ], [ -103.252802909195921, 20.479190426865891 ], [ -103.252802909195921, 20.478773199028659 ], [ -103.266557962595201, 20.478773199028659 ], [ -103.266557962595201, 20.479190426865891 ], [ -103.267808421995127, 20.479190426865891 ], [ -103.267808421995127, 20.478773199028659 ], [ -103.276978457594652, 20.478773199028659 ], [ -103.276978457594652, 20.479190426865891 ], [ -103.277812097194598, 20.479190426865891 ], [ -103.277812097194598, 20.478773199028659 ], [ -103.279479376394519, 20.478773199028659 ], [ -103.279479376394519, 20.479190426865891 ], [ -103.280313015994466, 20.479190426865891 ], [ -103.280313015994466, 20.478773199028659 ], [ -103.301570825793348, 20.478773199028659 ], [ -103.301570825793348, 20.479190426865891 ], [ -103.302404465393309, 20.479190426865891 ], [ -103.302404465393309, 20.478773199028659 ], [ -103.304905384193177, 20.478773199028659 ], [ -103.304905384193177, 20.479190426865891 ], [ -103.305739023793123, 20.479190426865891 ], [ -103.305739023793123, 20.479607654703123 ], [ -103.306155843593103, 20.479607654703123 ], [ -103.306155843593103, 20.480024882540356 ], [ -103.306572663393084, 20.480024882540356 ], [ -103.306572663393084, 20.479607654703123 ], [ -103.30782312279301, 20.479607654703123 ], [ -103.30782312279301, 20.478773199028659 ], [ -103.317826797992481, 20.478773199028659 ], [ -103.317826797992481, 20.479190426865891 ], [ -103.318243617792461, 20.479190426865891 ], [ -103.318243617792461, 20.478773199028659 ], [ -103.329914572191839, 20.478773199028659 ], [ -103.329914572191839, 20.479607654703123 ], [ -103.33033139199182, 20.479607654703123 ], [ -103.33033139199182, 20.480024882540356 ], [ -103.331581851391761, 20.480024882540356 ], [ -103.331581851391761, 20.479607654703123 ], [ -103.332415490991707, 20.479607654703123 ], [ -103.332415490991707, 20.480024882540356 ], [ -103.333249130591668, 20.480024882540356 ], [ -103.333249130591668, 20.480442110377588 ], [ -103.333665950391648, 20.480442110377588 ], [ -103.333665950391648, 20.48085933821482 ], [ -103.334082770191628, 20.48085933821482 ], [ -103.334082770191628, 20.480442110377588 ], [ -103.335333229591555, 20.480442110377588 ], [ -103.335333229591555, 20.480024882540356 ], [ -103.335750049391535, 20.480024882540356 ], [ -103.335750049391535, 20.479190426865891 ], [ -103.336166869191516, 20.479190426865891 ], [ -103.336166869191516, 20.478773199028659 ], [ -103.354923760190516, 20.478773199028659 ], [ -103.354923760190516, 20.479190426865891 ], [ -103.356174219590457, 20.479190426865891 ], [ -103.356174219590457, 20.478773199028659 ], [ -103.362426516590119, 20.478773199028659 ], [ -103.362426516590119, 20.479190426865891 ], [ -103.3628433363901, 20.479190426865891 ], [ -103.3628433363901, 20.479607654703123 ], [ -103.365344255189967, 20.479607654703123 ], [ -103.365344255189967, 20.480024882540356 ], [ -103.365761074989948, 20.480024882540356 ], [ -103.365761074989948, 20.479607654703123 ], [ -103.366177894789928, 20.479607654703123 ], [ -103.366177894789928, 20.479190426865891 ], [ -103.366594714589908, 20.479190426865891 ], [ -103.366594714589908, 20.478773199028659 ], [ -103.389936623388664, 20.478773199028659 ], [ -103.389936623388664, 20.479190426865891 ], [ -103.390770262988624, 20.479190426865891 ], [ -103.390770262988624, 20.479607654703123 ], [ -103.391603902588585, 20.479607654703123 ], [ -103.391603902588585, 20.479190426865891 ], [ -103.392020722388551, 20.479190426865891 ], [ -103.392020722388551, 20.478773199028659 ], [ -103.407859874787718, 20.478773199028659 ], [ -103.407859874787718, 20.479190426865891 ], [ -103.410360793587586, 20.479190426865891 ], [ -103.410360793587586, 20.480024882540356 ], [ -103.411194433187546, 20.480024882540356 ], [ -103.411194433187546, 20.480442110377588 ], [ -103.412028072787493, 20.480442110377588 ], [ -103.412028072787493, 20.48085933821482 ], [ -103.412861712387453, 20.48085933821482 ], [ -103.412861712387453, 20.481276566052053 ], [ -103.414112171787394, 20.481276566052053 ], [ -103.414112171787394, 20.48085933821482 ], [ -103.415779450987301, 20.48085933821482 ], [ -103.415779450987301, 20.481276566052053 ], [ -103.416613090587262, 20.481276566052053 ], [ -103.416613090587262, 20.481693793889285 ], [ -103.417029910387228, 20.481693793889285 ], [ -103.417029910387228, 20.482111021726517 ], [ -103.417863549987189, 20.482111021726517 ], [ -103.417863549987189, 20.48252824956375 ], [ -103.418280369787169, 20.48252824956375 ], [ -103.418280369787169, 20.482945477400982 ], [ -103.418697189587149, 20.482945477400982 ], [ -103.418697189587149, 20.483362705238214 ], [ -103.41911400938713, 20.483362705238214 ], [ -103.41911400938713, 20.483779933075446 ], [ -103.419947648987076, 20.483779933075446 ], [ -103.419947648987076, 20.484197160912679 ], [ -103.420781288587037, 20.484197160912679 ], [ -103.420781288587037, 20.484614388749911 ], [ -103.421614928186983, 20.484614388749911 ], [ -103.421614928186983, 20.485031616587143 ], [ -103.422865387586924, 20.485031616587143 ], [ -103.422865387586924, 20.485448844424376 ], [ -103.424115846986851, 20.485448844424376 ], [ -103.424115846986851, 20.485866072261608 ], [ -103.426616765786719, 20.485866072261608 ], [ -103.426616765786719, 20.48628330009884 ], [ -103.427450405386679, 20.48628330009884 ], [ -103.427450405386679, 20.486700527936073 ], [ -103.42870086478662, 20.486700527936073 ], [ -103.42870086478662, 20.487117755773305 ], [ -103.431618603386454, 20.487117755773305 ], [ -103.431618603386454, 20.486700527936073 ], [ -103.432035423186434, 20.486700527936073 ], [ -103.432035423186434, 20.487117755773305 ], [ -103.432452242986415, 20.487117755773305 ], [ -103.432452242986415, 20.487534983610537 ], [ -103.433285882586375, 20.487534983610537 ], [ -103.433285882586375, 20.487952211447769 ], [ -103.434119522186322, 20.487952211447769 ], [ -103.434119522186322, 20.488786667122234 ], [ -103.434536341986302, 20.488786667122234 ], [ -103.434536341986302, 20.489203894959466 ], [ -103.434953161786282, 20.489203894959466 ], [ -103.434953161786282, 20.489621122796699 ], [ -103.435369981586263, 20.489621122796699 ], [ -103.435369981586263, 20.49170726198286 ], [ -103.435786801386243, 20.49170726198286 ], [ -103.435786801386243, 20.492124489820092 ], [ -103.436203621186223, 20.492124489820092 ], [ -103.436203621186223, 20.492541717657325 ], [ -103.436620440986189, 20.492541717657325 ], [ -103.436620440986189, 20.492958945494557 ], [ -103.43703726078617, 20.492958945494557 ], [ -103.43703726078617, 20.493376173331789 ], [ -103.43745408058615, 20.493376173331789 ], [ -103.43745408058615, 20.494210629006254 ], [ -103.43787090038613, 20.494210629006254 ], [ -103.43787090038613, 20.495045084680719 ], [ -103.438287720186111, 20.495045084680719 ], [ -103.438287720186111, 20.495462312517951 ], [ -103.438704539986091, 20.495462312517951 ], [ -103.438704539986091, 20.499634590890274 ], [ -103.439121359786057, 20.499634590890274 ], [ -103.439121359786057, 20.500469046564739 ], [ -103.439538179586037, 20.500469046564739 ], [ -103.439538179586037, 20.500886274401971 ], [ -103.440371819185998, 20.500886274401971 ], [ -103.440371819185998, 20.501303502239203 ], [ -103.440788638985978, 20.501303502239203 ], [ -103.440788638985978, 20.501720730076435 ], [ -103.441205458785959, 20.501720730076435 ], [ -103.441205458785959, 20.502137957913668 ], [ -103.442039098385905, 20.502137957913668 ], [ -103.442039098385905, 20.502972413588132 ], [ -103.444956836985753, 20.502972413588132 ], [ -103.444956836985753, 20.5025551857509 ], [ -103.447457755785621, 20.5025551857509 ], [ -103.447457755785621, 20.502972413588132 ], [ -103.448708215185562, 20.502972413588132 ], [ -103.448708215185562, 20.503389641425365 ], [ -103.450375494385469, 20.503389641425365 ], [ -103.450375494385469, 20.503806869262597 ], [ -103.451209133985429, 20.503806869262597 ], [ -103.451209133985429, 20.504224097099829 ], [ -103.451625953785395, 20.504224097099829 ], [ -103.451625953785395, 20.504641324937062 ], [ -103.452042773585376, 20.504641324937062 ], [ -103.452042773585376, 20.505058552774294 ], [ -103.452459593385356, 20.505058552774294 ], [ -103.452459593385356, 20.505475780611526 ], [ -103.452876413185336, 20.505475780611526 ], [ -103.452876413185336, 20.505893008448759 ], [ -103.453710052785297, 20.505893008448759 ], [ -103.453710052785297, 20.506727464123223 ], [ -103.454126872585263, 20.506727464123223 ], [ -103.454126872585263, 20.507144691960455 ], [ -103.454543692385244, 20.507144691960455 ], [ -103.454543692385244, 20.50797914763492 ], [ -103.454960512185224, 20.50797914763492 ], [ -103.454960512185224, 20.508396375472152 ], [ -103.455794151785184, 20.508396375472152 ], [ -103.455794151785184, 20.508813603309385 ], [ -103.457461430985092, 20.508813603309385 ], [ -103.457461430985092, 20.509230831146617 ], [ -103.457878250785072, 20.509230831146617 ], [ -103.457878250785072, 20.509648058983849 ], [ -103.458711890385032, 20.509648058983849 ], [ -103.458711890385032, 20.510065286821082 ], [ -103.459128710184999, 20.510065286821082 ], [ -103.459128710184999, 20.510899742495546 ], [ -103.459962349784959, 20.510899742495546 ], [ -103.459962349784959, 20.511316970332778 ], [ -103.46037916958494, 20.511316970332778 ], [ -103.46037916958494, 20.511734198170011 ], [ -103.46079598938492, 20.511734198170011 ], [ -103.46079598938492, 20.512151426007243 ], [ -103.461629628984866, 20.512151426007243 ], [ -103.461629628984866, 20.512568653844475 ], [ -103.462463268584827, 20.512568653844475 ], [ -103.462463268584827, 20.512985881681708 ], [ -103.466214646784636, 20.512985881681708 ], [ -103.466214646784636, 20.51340310951894 ], [ -103.467881925984543, 20.51340310951894 ], [ -103.467881925984543, 20.513820337356172 ], [ -103.46954920518445, 20.513820337356172 ], [ -103.46954920518445, 20.514237565193405 ], [ -103.46996602498443, 20.514237565193405 ], [ -103.46996602498443, 20.514654793030637 ], [ -103.47038284478441, 20.514654793030637 ], [ -103.47038284478441, 20.515072020867869 ], [ -103.471633304184337, 20.515072020867869 ], [ -103.471633304184337, 20.515489248705101 ], [ -103.472050123984317, 20.515489248705101 ], [ -103.472050123984317, 20.515906476542334 ], [ -103.472466943784298, 20.515906476542334 ], [ -103.472466943784298, 20.516323704379566 ], [ -103.472883763584278, 20.516323704379566 ], [ -103.472883763584278, 20.517158160054031 ], [ -103.473300583384258, 20.517158160054031 ], [ -103.473300583384258, 20.517575387891263 ], [ -103.474134222984205, 20.517575387891263 ], [ -103.474134222984205, 20.517992615728495 ], [ -103.474967862584165, 20.517992615728495 ], [ -103.474967862584165, 20.518409843565728 ], [ -103.475801502184126, 20.518409843565728 ], [ -103.475801502184126, 20.51882707140296 ], [ -103.476635141784072, 20.51882707140296 ], [ -103.476635141784072, 20.519244299240192 ], [ -103.476218321984092, 20.519244299240192 ], [ -103.476218321984092, 20.521330438426354 ], [ -103.475801502184126, 20.521330438426354 ], [ -103.475801502184126, 20.521747666263586 ], [ -103.476218321984092, 20.521747666263586 ], [ -103.476218321984092, 20.522164894100818 ], [ -103.476635141784072, 20.522164894100818 ], [ -103.476635141784072, 20.522582121938051 ], [ -103.477885601184013, 20.522582121938051 ], [ -103.477885601184013, 20.522999349775283 ], [ -103.47913606058394, 20.522999349775283 ], [ -103.47913606058394, 20.523416577612515 ], [ -103.481636979383808, 20.523416577612515 ], [ -103.481636979383808, 20.524668261124212 ], [ -103.484137898183675, 20.524668261124212 ], [ -103.484137898183675, 20.525085488961444 ], [ -103.484971537783636, 20.525085488961444 ], [ -103.484971537783636, 20.526754400310374 ], [ -103.484554717983656, 20.526754400310374 ], [ -103.484554717983656, 20.528423311659303 ], [ -103.484137898183675, 20.528423311659303 ], [ -103.484137898183675, 20.528840539496535 ], [ -103.483721078383695, 20.528840539496535 ], [ -103.483721078383695, 20.529674995171 ], [ -103.484971537783636, 20.529674995171 ], [ -103.484971537783636, 20.530092223008232 ], [ -103.485388357583616, 20.530092223008232 ], [ -103.485388357583616, 20.530926678682697 ], [ -103.485805177383597, 20.530926678682697 ], [ -103.485805177383597, 20.531761134357161 ], [ -103.487889276383484, 20.531761134357161 ], [ -103.487889276383484, 20.532178362194394 ], [ -103.488306096183464, 20.532178362194394 ], [ -103.488306096183464, 20.532595590031626 ], [ -103.488722915983431, 20.532595590031626 ], [ -103.488722915983431, 20.533012817868858 ], [ -103.489556555583391, 20.533012817868858 ], [ -103.489556555583391, 20.533430045706091 ], [ -103.490807014983332, 20.533430045706091 ], [ -103.490807014983332, 20.533847273543323 ], [ -103.492057474383259, 20.533847273543323 ], [ -103.492057474383259, 20.534264501380555 ], [ -103.492891113983219, 20.534264501380555 ], [ -103.492891113983219, 20.533847273543323 ], [ -103.4933079337832, 20.533847273543323 ], [ -103.4933079337832, 20.532595590031626 ], [ -103.494141573383146, 20.532595590031626 ], [ -103.494141573383146, 20.532178362194394 ], [ -103.495392032783087, 20.532178362194394 ], [ -103.495392032783087, 20.531761134357161 ], [ -103.496642492183014, 20.531761134357161 ], [ -103.496642492183014, 20.531343906519929 ], [ -103.497059311982994, 20.531343906519929 ], [ -103.497059311982994, 20.530509450845464 ], [ -103.498309771382935, 20.530509450845464 ], [ -103.498309771382935, 20.529674995171 ], [ -103.500393870382823, 20.529674995171 ], [ -103.500393870382823, 20.528423311659303 ], [ -103.500810690182803, 20.528423311659303 ], [ -103.500810690182803, 20.528006083822071 ], [ -103.501227509982769, 20.528006083822071 ], [ -103.501227509982769, 20.528423311659303 ], [ -103.50206114958273, 20.528423311659303 ], [ -103.50206114958273, 20.528006083822071 ], [ -103.503311608982671, 20.528006083822071 ], [ -103.503311608982671, 20.527588855984838 ], [ -103.504562068382597, 20.527588855984838 ], [ -103.504562068382597, 20.527171628147606 ], [ -103.506229347582504, 20.527171628147606 ], [ -103.506229347582504, 20.526754400310374 ], [ -103.506646167382485, 20.526754400310374 ], [ -103.506646167382485, 20.525085488961444 ], [ -103.507062987182465, 20.525085488961444 ], [ -103.507062987182465, 20.522582121938051 ], [ -103.506646167382485, 20.522582121938051 ], [ -103.506646167382485, 20.521330438426354 ], [ -103.506229347582504, 20.521330438426354 ], [ -103.506229347582504, 20.520078754914657 ], [ -103.505812527782538, 20.520078754914657 ], [ -103.505812527782538, 20.514654793030637 ], [ -103.506229347582504, 20.514654793030637 ], [ -103.506229347582504, 20.513820337356172 ], [ -103.506646167382485, 20.513820337356172 ], [ -103.506646167382485, 20.51340310951894 ], [ -103.507062987182465, 20.51340310951894 ], [ -103.507062987182465, 20.513820337356172 ], [ -103.508313446582406, 20.513820337356172 ], [ -103.508313446582406, 20.514237565193405 ], [ -103.509147086182352, 20.514237565193405 ], [ -103.509147086182352, 20.514654793030637 ], [ -103.509563905982333, 20.514654793030637 ], [ -103.509563905982333, 20.515072020867869 ], [ -103.509980725782313, 20.515072020867869 ], [ -103.509980725782313, 20.515489248705101 ], [ -103.510814365382274, 20.515489248705101 ], [ -103.510814365382274, 20.515906476542334 ], [ -103.512481644582181, 20.515906476542334 ], [ -103.512481644582181, 20.516323704379566 ], [ -103.513315284182141, 20.516323704379566 ], [ -103.513315284182141, 20.516740932216798 ], [ -103.515399383182029, 20.516740932216798 ], [ -103.515399383182029, 20.517158160054031 ], [ -103.515816202982009, 20.517158160054031 ], [ -103.515816202982009, 20.518409843565728 ], [ -103.516233022781975, 20.518409843565728 ], [ -103.516233022781975, 20.519244299240192 ], [ -103.516649842581955, 20.519244299240192 ], [ -103.516649842581955, 20.520495982751889 ], [ -103.517066662381936, 20.520495982751889 ], [ -103.517066662381936, 20.521330438426354 ], [ -103.517483482181916, 20.521330438426354 ], [ -103.517483482181916, 20.523833805449748 ], [ -103.517066662381936, 20.523833805449748 ], [ -103.517066662381936, 20.526337172473141 ], [ -103.515816202982009, 20.526337172473141 ], [ -103.515816202982009, 20.526754400310374 ], [ -103.514982563382048, 20.526754400310374 ], [ -103.514982563382048, 20.527171628147606 ], [ -103.514565743582068, 20.527171628147606 ], [ -103.514565743582068, 20.527588855984838 ], [ -103.514148923782088, 20.527588855984838 ], [ -103.514148923782088, 20.528423311659303 ], [ -103.513732103982107, 20.528423311659303 ], [ -103.513732103982107, 20.528840539496535 ], [ -103.513315284182141, 20.528840539496535 ], [ -103.513315284182141, 20.529257767333768 ], [ -103.513732103982107, 20.529257767333768 ], [ -103.513732103982107, 20.531343906519929 ], [ -103.514148923782088, 20.531343906519929 ], [ -103.514148923782088, 20.531761134357161 ], [ -103.514565743582068, 20.531761134357161 ], [ -103.514565743582068, 20.532178362194394 ], [ -103.514982563382048, 20.532178362194394 ], [ -103.514982563382048, 20.532595590031626 ], [ -103.515399383182029, 20.532595590031626 ], [ -103.515399383182029, 20.533430045706091 ], [ -103.515816202982009, 20.533430045706091 ], [ -103.515816202982009, 20.535933412729484 ], [ -103.515399383182029, 20.535933412729484 ], [ -103.515399383182029, 20.538019551915646 ], [ -103.515816202982009, 20.538019551915646 ], [ -103.515816202982009, 20.53885400759011 ], [ -103.516233022781975, 20.53885400759011 ], [ -103.516233022781975, 20.539271235427343 ], [ -103.516649842581955, 20.539271235427343 ], [ -103.516649842581955, 20.541357374613504 ], [ -103.516233022781975, 20.541357374613504 ], [ -103.516233022781975, 20.542609058125201 ], [ -103.516649842581955, 20.542609058125201 ], [ -103.516649842581955, 20.543443513799666 ], [ -103.517900301981896, 20.543443513799666 ], [ -103.517900301981896, 20.54427796947413 ], [ -103.517483482181916, 20.54427796947413 ], [ -103.517483482181916, 20.544695197311363 ], [ -103.516649842581955, 20.544695197311363 ], [ -103.516649842581955, 20.545112425148595 ], [ -103.516233022781975, 20.545112425148595 ], [ -103.516233022781975, 20.54594688082306 ], [ -103.517483482181916, 20.54594688082306 ], [ -103.517483482181916, 20.546364108660292 ], [ -103.517066662381936, 20.546364108660292 ], [ -103.517066662381936, 20.547615792171989 ], [ -103.517483482181916, 20.547615792171989 ], [ -103.517483482181916, 20.548867475683686 ], [ -103.517066662381936, 20.548867475683686 ], [ -103.517066662381936, 20.549284703520918 ], [ -103.516649842581955, 20.549284703520918 ], [ -103.516649842581955, 20.550536387032615 ], [ -103.517066662381936, 20.550536387032615 ], [ -103.517066662381936, 20.550953614869847 ], [ -103.516649842581955, 20.550953614869847 ], [ -103.516649842581955, 20.551788070544312 ], [ -103.516233022781975, 20.551788070544312 ], [ -103.516233022781975, 20.555543121079403 ], [ -103.515816202982009, 20.555543121079403 ], [ -103.515816202982009, 20.556377576753867 ], [ -103.515399383182029, 20.556377576753867 ], [ -103.515399383182029, 20.557629260265564 ], [ -103.514982563382048, 20.557629260265564 ], [ -103.514982563382048, 20.558046488102796 ], [ -103.514565743582068, 20.558046488102796 ], [ -103.514565743582068, 20.560132627288958 ], [ -103.513732103982107, 20.560132627288958 ], [ -103.513732103982107, 20.561384310800655 ], [ -103.513315284182141, 20.561384310800655 ], [ -103.513315284182141, 20.562218766475119 ], [ -103.512481644582181, 20.562218766475119 ], [ -103.512481644582181, 20.563053222149584 ], [ -103.512898464382161, 20.563053222149584 ], [ -103.512898464382161, 20.563470449986816 ], [ -103.513315284182141, 20.563470449986816 ], [ -103.513315284182141, 20.563887677824049 ], [ -103.513732103982107, 20.563887677824049 ], [ -103.513732103982107, 20.565139361335746 ], [ -103.514148923782088, 20.565139361335746 ], [ -103.514148923782088, 20.565556589172978 ], [ -103.514565743582068, 20.565556589172978 ], [ -103.514565743582068, 20.56597381701021 ], [ -103.514982563382048, 20.56597381701021 ], [ -103.514982563382048, 20.566391044847443 ], [ -103.515399383182029, 20.566391044847443 ], [ -103.515399383182029, 20.566808272684675 ], [ -103.515816202982009, 20.566808272684675 ], [ -103.515816202982009, 20.567642728359139 ], [ -103.516233022781975, 20.567642728359139 ], [ -103.516233022781975, 20.568477184033604 ], [ -103.516649842581955, 20.568477184033604 ], [ -103.516649842581955, 20.570146095382533 ], [ -103.519567581181803, 20.570146095382533 ], [ -103.519567581181803, 20.570563323219766 ], [ -103.519984400981784, 20.570563323219766 ], [ -103.519984400981784, 20.570980551056998 ], [ -103.520818040581744, 20.570980551056998 ], [ -103.520818040581744, 20.572232234568695 ], [ -103.521651680181691, 20.572232234568695 ], [ -103.521651680181691, 20.572649462405927 ], [ -103.522902139581632, 20.572649462405927 ], [ -103.522902139581632, 20.573066690243159 ], [ -103.523318959381612, 20.573066690243159 ], [ -103.523318959381612, 20.573483918080392 ], [ -103.523735779181578, 20.573483918080392 ], [ -103.523735779181578, 20.574318373754856 ], [ -103.524152598981559, 20.574318373754856 ], [ -103.524152598981559, 20.574735601592089 ], [ -103.524569418781539, 20.574735601592089 ], [ -103.524569418781539, 20.575152829429321 ], [ -103.524986238581519, 20.575152829429321 ], [ -103.524986238581519, 20.575570057266553 ], [ -103.525403058381499, 20.575570057266553 ], [ -103.525403058381499, 20.57682174077825 ], [ -103.52581987818148, 20.57682174077825 ], [ -103.52581987818148, 20.580576791313341 ], [ -103.526236697981446, 20.580576791313341 ], [ -103.526236697981446, 20.580994019150573 ], [ -103.526653517781426, 20.580994019150573 ], [ -103.526653517781426, 20.581411246987805 ], [ -103.527487157381387, 20.581411246987805 ], [ -103.527487157381387, 20.581828474825038 ], [ -103.527903977181367, 20.581828474825038 ], [ -103.527903977181367, 20.583080158336735 ], [ -103.528320796981347, 20.583080158336735 ], [ -103.528320796981347, 20.584331841848432 ], [ -103.528737616781314, 20.584331841848432 ], [ -103.528737616781314, 20.584749069685664 ], [ -103.529154436581294, 20.584749069685664 ], [ -103.529154436581294, 20.585583525360128 ], [ -103.529988076181255, 20.585583525360128 ], [ -103.529988076181255, 20.586417981034593 ], [ -103.530404895981235, 20.586417981034593 ], [ -103.530404895981235, 20.587252436709058 ], [ -103.531238535581181, 20.587252436709058 ], [ -103.531238535581181, 20.58766966454629 ], [ -103.531655355381162, 20.58766966454629 ], [ -103.531655355381162, 20.596014221290936 ], [ -103.529988076181255, 20.596014221290936 ], [ -103.529988076181255, 20.598934816151562 ], [ -103.529571256381274, 20.598934816151562 ], [ -103.529571256381274, 20.599352043988794 ], [ -103.529988076181255, 20.599352043988794 ], [ -103.529988076181255, 20.599769271826027 ], [ -103.530404895981235, 20.599769271826027 ], [ -103.530404895981235, 20.600186499663259 ], [ -103.530821715781215, 20.600186499663259 ], [ -103.530821715781215, 20.600603727500491 ], [ -103.531238535581181, 20.600603727500491 ], [ -103.531238535581181, 20.603524322361118 ], [ -103.530821715781215, 20.603524322361118 ], [ -103.530821715781215, 20.605610461547279 ], [ -103.531238535581181, 20.605610461547279 ], [ -103.531238535581181, 20.606027689384511 ], [ -103.531655355381162, 20.606027689384511 ], [ -103.531655355381162, 20.608948284245137 ], [ -103.531238535581181, 20.608948284245137 ], [ -103.531238535581181, 20.609782739919602 ], [ -103.531655355381162, 20.609782739919602 ], [ -103.531655355381162, 20.614372246129157 ], [ -103.531238535581181, 20.614372246129157 ], [ -103.531238535581181, 20.615206701803622 ], [ -103.530821715781215, 20.615206701803622 ], [ -103.530821715781215, 20.616875613152551 ], [ -103.530404895981235, 20.616875613152551 ], [ -103.530404895981235, 20.618127296664248 ], [ -103.529988076181255, 20.618127296664248 ], [ -103.529988076181255, 20.618961752338713 ], [ -103.529571256381274, 20.618961752338713 ], [ -103.529571256381274, 20.619378980175945 ], [ -103.528737616781314, 20.619378980175945 ], [ -103.528737616781314, 20.619796208013177 ], [ -103.528320796981347, 20.619796208013177 ], [ -103.528320796981347, 20.620630663687642 ], [ -103.527903977181367, 20.620630663687642 ], [ -103.527903977181367, 20.621047891524874 ], [ -103.527487157381387, 20.621047891524874 ], [ -103.527487157381387, 20.622716802873803 ], [ -103.527070337581407, 20.622716802873803 ], [ -103.527070337581407, 20.623134030711036 ], [ -103.526653517781426, 20.623134030711036 ], [ -103.526653517781426, 20.6239684863855 ], [ -103.526236697981446, 20.6239684863855 ], [ -103.526236697981446, 20.625220169897197 ], [ -103.52581987818148, 20.625220169897197 ], [ -103.52581987818148, 20.62563739773443 ], [ -103.524986238581519, 20.62563739773443 ], [ -103.524986238581519, 20.626471853408894 ], [ -103.524569418781539, 20.626471853408894 ], [ -103.524569418781539, 20.626889081246127 ], [ -103.524986238581519, 20.626889081246127 ], [ -103.524986238581519, 20.628140764757823 ], [ -103.525403058381499, 20.628140764757823 ], [ -103.525403058381499, 20.628557992595056 ], [ -103.526653517781426, 20.628557992595056 ], [ -103.526653517781426, 20.628975220432288 ], [ -103.527070337581407, 20.628975220432288 ], [ -103.527070337581407, 20.631478587455682 ], [ -103.527487157381387, 20.631478587455682 ], [ -103.527487157381387, 20.631895815292914 ], [ -103.527903977181367, 20.631895815292914 ], [ -103.527903977181367, 20.632313043130146 ], [ -103.527487157381387, 20.632313043130146 ], [ -103.527487157381387, 20.633564726641843 ], [ -103.527070337581407, 20.633564726641843 ], [ -103.527070337581407, 20.635233637990773 ], [ -103.52581987818148, 20.635233637990773 ], [ -103.52581987818148, 20.63481641015354 ], [ -103.525403058381499, 20.63481641015354 ], [ -103.525403058381499, 20.634399182316308 ], [ -103.522068499981671, 20.634399182316308 ], [ -103.522068499981671, 20.63481641015354 ], [ -103.521651680181691, 20.63481641015354 ], [ -103.521651680181691, 20.635233637990773 ], [ -103.520818040581744, 20.635233637990773 ], [ -103.520818040581744, 20.635650865828005 ], [ -103.518317121781877, 20.635650865828005 ], [ -103.518317121781877, 20.636068093665237 ], [ -103.517483482181916, 20.636068093665237 ], [ -103.517483482181916, 20.63648532150247 ], [ -103.517066662381936, 20.63648532150247 ], [ -103.517066662381936, 20.636902549339702 ], [ -103.516649842581955, 20.636902549339702 ], [ -103.516649842581955, 20.637319777176934 ], [ -103.516233022781975, 20.637319777176934 ], [ -103.516233022781975, 20.638154232851399 ], [ -103.515816202982009, 20.638154232851399 ], [ -103.515816202982009, 20.638571460688631 ], [ -103.516233022781975, 20.638571460688631 ], [ -103.516233022781975, 20.64024037203756 ], [ -103.515816202982009, 20.64024037203756 ], [ -103.515816202982009, 20.641074827712025 ], [ -103.515399383182029, 20.641074827712025 ], [ -103.515399383182029, 20.641492055549257 ], [ -103.514565743582068, 20.641492055549257 ], [ -103.514565743582068, 20.641909283386489 ], [ -103.513315284182141, 20.641909283386489 ], [ -103.513315284182141, 20.644412650409883 ], [ -103.512898464382161, 20.644412650409883 ], [ -103.512898464382161, 20.644829878247116 ], [ -103.512481644582181, 20.644829878247116 ], [ -103.512481644582181, 20.645247106084348 ], [ -103.5120648247822, 20.645247106084348 ], [ -103.5120648247822, 20.646081561758812 ], [ -103.51164800498222, 20.646081561758812 ], [ -103.51164800498222, 20.646916017433277 ], [ -103.51123118518224, 20.646916017433277 ], [ -103.51123118518224, 20.649002156619439 ], [ -103.51164800498222, 20.649002156619439 ], [ -103.51164800498222, 20.649419384456671 ], [ -103.5120648247822, 20.649419384456671 ], [ -103.5120648247822, 20.649836612293903 ], [ -103.51164800498222, 20.649836612293903 ], [ -103.51164800498222, 20.650253840131136 ], [ -103.5120648247822, 20.650253840131136 ], [ -103.5120648247822, 20.650671067968368 ], [ -103.51164800498222, 20.650671067968368 ], [ -103.51164800498222, 20.654426118503459 ], [ -103.51123118518224, 20.654426118503459 ], [ -103.51123118518224, 20.656929485526852 ], [ -103.510814365382274, 20.656929485526852 ], [ -103.510814365382274, 20.657763941201317 ], [ -103.509980725782313, 20.657763941201317 ], [ -103.509980725782313, 20.658181169038549 ], [ -103.509563905982333, 20.658181169038549 ], [ -103.509563905982333, 20.658598396875782 ], [ -103.509147086182352, 20.658598396875782 ], [ -103.509147086182352, 20.66193621957364 ], [ -103.509563905982333, 20.66193621957364 ], [ -103.509563905982333, 20.662770675248105 ], [ -103.509980725782313, 20.662770675248105 ], [ -103.509980725782313, 20.664022358759802 ], [ -103.510397545582293, 20.664022358759802 ], [ -103.510397545582293, 20.665274042271498 ], [ -103.510814365382274, 20.665274042271498 ], [ -103.510814365382274, 20.666108497945963 ], [ -103.51123118518224, 20.666108497945963 ], [ -103.51123118518224, 20.666525725783195 ], [ -103.512898464382161, 20.666525725783195 ], [ -103.512898464382161, 20.666942953620428 ], [ -103.513732103982107, 20.666942953620428 ], [ -103.513732103982107, 20.66736018145766 ], [ -103.514148923782088, 20.66736018145766 ], [ -103.514148923782088, 20.668194637132125 ], [ -103.514565743582068, 20.668194637132125 ], [ -103.514565743582068, 20.668611864969357 ], [ -103.514982563382048, 20.668611864969357 ], [ -103.514982563382048, 20.669029092806589 ], [ -103.515399383182029, 20.669029092806589 ], [ -103.515399383182029, 20.669446320643821 ], [ -103.514982563382048, 20.669446320643821 ], [ -103.514982563382048, 20.670280776318286 ], [ -103.515399383182029, 20.670280776318286 ], [ -103.515399383182029, 20.670698004155518 ], [ -103.516649842581955, 20.670698004155518 ], [ -103.516649842581955, 20.670280776318286 ], [ -103.517483482181916, 20.670280776318286 ], [ -103.517483482181916, 20.669863548481054 ], [ -103.517900301981896, 20.669863548481054 ], [ -103.517900301981896, 20.670698004155518 ], [ -103.518317121781877, 20.670698004155518 ], [ -103.518317121781877, 20.671115231992751 ], [ -103.517900301981896, 20.671115231992751 ], [ -103.517900301981896, 20.671532459829983 ], [ -103.517066662381936, 20.671532459829983 ], [ -103.517066662381936, 20.67278414334168 ], [ -103.516649842581955, 20.67278414334168 ], [ -103.516649842581955, 20.673201371178912 ], [ -103.515816202982009, 20.673201371178912 ], [ -103.515816202982009, 20.673618599016145 ], [ -103.514148923782088, 20.673618599016145 ], [ -103.514148923782088, 20.673201371178912 ], [ -103.513732103982107, 20.673201371178912 ], [ -103.513732103982107, 20.67278414334168 ], [ -103.513315284182141, 20.67278414334168 ], [ -103.513315284182141, 20.672366915504448 ], [ -103.512898464382161, 20.672366915504448 ], [ -103.512898464382161, 20.671949687667215 ], [ -103.51164800498222, 20.671949687667215 ], [ -103.51164800498222, 20.672366915504448 ], [ -103.509980725782313, 20.672366915504448 ], [ -103.509980725782313, 20.671949687667215 ], [ -103.508730266382372, 20.671949687667215 ], [ -103.508730266382372, 20.671532459829983 ], [ -103.507062987182465, 20.671532459829983 ], [ -103.507062987182465, 20.671115231992751 ], [ -103.505812527782538, 20.671115231992751 ], [ -103.505812527782538, 20.671532459829983 ], [ -103.50206114958273, 20.671532459829983 ], [ -103.50206114958273, 20.671115231992751 ], [ -103.501644329782749, 20.671115231992751 ], [ -103.501644329782749, 20.671532459829983 ], [ -103.499560230782862, 20.671532459829983 ], [ -103.499560230782862, 20.671949687667215 ], [ -103.499143410982882, 20.671949687667215 ], [ -103.499143410982882, 20.672366915504448 ], [ -103.496642492183014, 20.672366915504448 ], [ -103.496642492183014, 20.67278414334168 ], [ -103.496225672383034, 20.67278414334168 ], [ -103.496225672383034, 20.673201371178912 ], [ -103.495808852583068, 20.673201371178912 ], [ -103.495808852583068, 20.673618599016145 ], [ -103.494975212983107, 20.673618599016145 ], [ -103.494975212983107, 20.674035826853377 ], [ -103.494558393183127, 20.674035826853377 ], [ -103.494558393183127, 20.674453054690609 ], [ -103.494141573383146, 20.674453054690609 ], [ -103.494141573383146, 20.674870282527841 ], [ -103.4933079337832, 20.674870282527841 ], [ -103.4933079337832, 20.674453054690609 ], [ -103.492474294183239, 20.674453054690609 ], [ -103.492474294183239, 20.673618599016145 ], [ -103.492057474383259, 20.673618599016145 ], [ -103.492057474383259, 20.671115231992751 ], [ -103.491640654583279, 20.671115231992751 ], [ -103.491640654583279, 20.670280776318286 ], [ -103.490807014983332, 20.670280776318286 ], [ -103.490807014983332, 20.670698004155518 ], [ -103.490390195183352, 20.670698004155518 ], [ -103.490390195183352, 20.671115231992751 ], [ -103.489973375383371, 20.671115231992751 ], [ -103.489973375383371, 20.670698004155518 ], [ -103.489139735783411, 20.670698004155518 ], [ -103.489139735783411, 20.670280776318286 ], [ -103.487472456583504, 20.670280776318286 ], [ -103.487472456583504, 20.668194637132125 ], [ -103.486638816983543, 20.668194637132125 ], [ -103.486638816983543, 20.667777409294892 ], [ -103.486221997183563, 20.667777409294892 ], [ -103.486221997183563, 20.666942953620428 ], [ -103.485805177383597, 20.666942953620428 ], [ -103.485805177383597, 20.666108497945963 ], [ -103.485388357583616, 20.666108497945963 ], [ -103.485388357583616, 20.665691270108731 ], [ -103.484971537783636, 20.665691270108731 ], [ -103.484971537783636, 20.665274042271498 ], [ -103.485388357583616, 20.665274042271498 ], [ -103.485388357583616, 20.664439586597034 ], [ -103.484971537783636, 20.664439586597034 ], [ -103.484971537783636, 20.664022358759802 ], [ -103.484137898183675, 20.664022358759802 ], [ -103.484137898183675, 20.663605130922569 ], [ -103.483721078383695, 20.663605130922569 ], [ -103.483721078383695, 20.663187903085337 ], [ -103.483304258583729, 20.663187903085337 ], [ -103.483304258583729, 20.662770675248105 ], [ -103.482887438783749, 20.662770675248105 ], [ -103.482887438783749, 20.662353447410872 ], [ -103.482470618983768, 20.662353447410872 ], [ -103.482470618983768, 20.66193621957364 ], [ -103.482053799183788, 20.66193621957364 ], [ -103.482053799183788, 20.660684536061943 ], [ -103.481636979383808, 20.660684536061943 ], [ -103.481636979383808, 20.658598396875782 ], [ -103.47913606058394, 20.658598396875782 ], [ -103.47913606058394, 20.658181169038549 ], [ -103.477885601184013, 20.658181169038549 ], [ -103.477885601184013, 20.658598396875782 ], [ -103.477468781384033, 20.658598396875782 ], [ -103.477468781384033, 20.659015624713014 ], [ -103.477051961584053, 20.659015624713014 ], [ -103.477051961584053, 20.659850080387478 ], [ -103.476635141784072, 20.659850080387478 ], [ -103.476635141784072, 20.660267308224711 ], [ -103.475384682384146, 20.660267308224711 ], [ -103.475384682384146, 20.660684536061943 ], [ -103.474967862584165, 20.660684536061943 ], [ -103.474967862584165, 20.660267308224711 ], [ -103.473300583384258, 20.660267308224711 ], [ -103.473300583384258, 20.659850080387478 ], [ -103.471633304184337, 20.659850080387478 ], [ -103.471633304184337, 20.659432852550246 ], [ -103.471216484384371, 20.659432852550246 ], [ -103.471216484384371, 20.659015624713014 ], [ -103.470799664584391, 20.659015624713014 ], [ -103.470799664584391, 20.657763941201317 ], [ -103.47038284478441, 20.657763941201317 ], [ -103.47038284478441, 20.657346713364085 ], [ -103.46954920518445, 20.657346713364085 ], [ -103.46954920518445, 20.657763941201317 ], [ -103.467048286384582, 20.657763941201317 ], [ -103.467048286384582, 20.657346713364085 ], [ -103.465797826984655, 20.657346713364085 ], [ -103.465797826984655, 20.656929485526852 ], [ -103.464547367584714, 20.656929485526852 ], [ -103.464547367584714, 20.657346713364085 ], [ -103.462463268584827, 20.657346713364085 ], [ -103.462463268584827, 20.657763941201317 ], [ -103.4612128091849, 20.657763941201317 ], [ -103.4612128091849, 20.657346713364085 ], [ -103.46079598938492, 20.657346713364085 ], [ -103.46079598938492, 20.656929485526852 ], [ -103.46037916958494, 20.656929485526852 ], [ -103.46037916958494, 20.65651225768962 ], [ -103.459545529984979, 20.65651225768962 ], [ -103.459545529984979, 20.656095029852388 ], [ -103.459128710184999, 20.656095029852388 ], [ -103.459128710184999, 20.655677802015155 ], [ -103.458711890385032, 20.655677802015155 ], [ -103.458711890385032, 20.655260574177923 ], [ -103.458295070585052, 20.655260574177923 ], [ -103.458295070585052, 20.654843346340691 ], [ -103.457878250785072, 20.654843346340691 ], [ -103.457878250785072, 20.654426118503459 ], [ -103.457461430985092, 20.654426118503459 ], [ -103.457461430985092, 20.652339979317297 ], [ -103.456627791385131, 20.652339979317297 ], [ -103.456627791385131, 20.652757207154529 ], [ -103.454960512185224, 20.652757207154529 ], [ -103.454960512185224, 20.653174434991762 ], [ -103.454543692385244, 20.653174434991762 ], [ -103.454543692385244, 20.653591662828994 ], [ -103.453710052785297, 20.653591662828994 ], [ -103.453710052785297, 20.652339979317297 ], [ -103.453293232985317, 20.652339979317297 ], [ -103.453293232985317, 20.651505523642832 ], [ -103.452459593385356, 20.651505523642832 ], [ -103.452459593385356, 20.6510882958056 ], [ -103.452042773585376, 20.6510882958056 ], [ -103.452042773585376, 20.650671067968368 ], [ -103.451625953785395, 20.650671067968368 ], [ -103.451625953785395, 20.650253840131136 ], [ -103.450792314185449, 20.650253840131136 ], [ -103.450792314185449, 20.649836612293903 ], [ -103.450375494385469, 20.649836612293903 ], [ -103.450375494385469, 20.648584928782206 ], [ -103.449541854785508, 20.648584928782206 ], [ -103.449541854785508, 20.648167700944974 ], [ -103.449125034985528, 20.648167700944974 ], [ -103.449125034985528, 20.647750473107742 ], [ -103.448708215185562, 20.647750473107742 ], [ -103.448708215185562, 20.647333245270509 ], [ -103.448291395385581, 20.647333245270509 ], [ -103.448291395385581, 20.646916017433277 ], [ -103.447874575585601, 20.646916017433277 ], [ -103.447874575585601, 20.646081561758812 ], [ -103.446207296385694, 20.646081561758812 ], [ -103.446207296385694, 20.646498789596045 ], [ -103.444540017185773, 20.646498789596045 ], [ -103.444540017185773, 20.646081561758812 ], [ -103.443706377585826, 20.646081561758812 ], [ -103.443706377585826, 20.64566433392158 ], [ -103.443289557785846, 20.64566433392158 ], [ -103.443289557785846, 20.646081561758812 ], [ -103.442872737985866, 20.646081561758812 ], [ -103.442872737985866, 20.64566433392158 ], [ -103.442455918185885, 20.64566433392158 ], [ -103.442455918185885, 20.644412650409883 ], [ -103.442039098385905, 20.644412650409883 ], [ -103.442039098385905, 20.643578194735419 ], [ -103.441622278585925, 20.643578194735419 ], [ -103.441622278585925, 20.643160966898186 ], [ -103.441205458785959, 20.643160966898186 ], [ -103.441205458785959, 20.642743739060954 ], [ -103.441622278585925, 20.642743739060954 ], [ -103.441622278585925, 20.641909283386489 ], [ -103.441205458785959, 20.641909283386489 ], [ -103.441205458785959, 20.641492055549257 ], [ -103.440788638985978, 20.641492055549257 ], [ -103.440788638985978, 20.641074827712025 ], [ -103.440371819185998, 20.641074827712025 ], [ -103.440371819185998, 20.639823144200328 ], [ -103.439954999386018, 20.639823144200328 ], [ -103.439954999386018, 20.639405916363096 ], [ -103.439538179586037, 20.639405916363096 ], [ -103.439538179586037, 20.638154232851399 ], [ -103.439121359786057, 20.638154232851399 ], [ -103.439121359786057, 20.637737005014166 ], [ -103.438704539986091, 20.637737005014166 ], [ -103.438704539986091, 20.636902549339702 ], [ -103.438287720186111, 20.636902549339702 ], [ -103.438287720186111, 20.635233637990773 ], [ -103.43787090038613, 20.635233637990773 ], [ -103.43787090038613, 20.633981954479076 ], [ -103.43703726078617, 20.633981954479076 ], [ -103.43703726078617, 20.632313043130146 ], [ -103.434953161786282, 20.632313043130146 ], [ -103.434953161786282, 20.632730270967379 ], [ -103.434119522186322, 20.632730270967379 ], [ -103.434119522186322, 20.633147498804611 ], [ -103.433702702386356, 20.633147498804611 ], [ -103.433702702386356, 20.633564726641843 ], [ -103.433285882586375, 20.633564726641843 ], [ -103.433285882586375, 20.633981954479076 ], [ -103.432452242986415, 20.633981954479076 ], [ -103.432452242986415, 20.634399182316308 ], [ -103.432869062786395, 20.634399182316308 ], [ -103.432869062786395, 20.63481641015354 ], [ -103.432452242986415, 20.63481641015354 ], [ -103.432452242986415, 20.635233637990773 ], [ -103.431618603386454, 20.635233637990773 ], [ -103.431618603386454, 20.635650865828005 ], [ -103.430784963786508, 20.635650865828005 ], [ -103.430784963786508, 20.635233637990773 ], [ -103.430368143986527, 20.635233637990773 ], [ -103.430368143986527, 20.634399182316308 ], [ -103.429951324186547, 20.634399182316308 ], [ -103.429951324186547, 20.631895815292914 ], [ -103.429534504386567, 20.631895815292914 ], [ -103.429534504386567, 20.631478587455682 ], [ -103.429117684586586, 20.631478587455682 ], [ -103.429117684586586, 20.630644131781217 ], [ -103.429534504386567, 20.630644131781217 ], [ -103.429534504386567, 20.62939244826952 ], [ -103.42870086478662, 20.62939244826952 ], [ -103.42870086478662, 20.628975220432288 ], [ -103.42786722518666, 20.628975220432288 ], [ -103.42786722518666, 20.628140764757823 ], [ -103.427450405386679, 20.628140764757823 ], [ -103.427450405386679, 20.627723536920591 ], [ -103.426199945986752, 20.627723536920591 ], [ -103.426199945986752, 20.626471853408894 ], [ -103.424949486586812, 20.626471853408894 ], [ -103.424949486586812, 20.626054625571662 ], [ -103.423699027186885, 20.626054625571662 ], [ -103.423699027186885, 20.62563739773443 ], [ -103.422448567786944, 20.62563739773443 ], [ -103.422448567786944, 20.626054625571662 ], [ -103.422031747986964, 20.626054625571662 ], [ -103.422031747986964, 20.626471853408894 ], [ -103.420364468787056, 20.626471853408894 ], [ -103.420364468787056, 20.62563739773443 ], [ -103.419947648987076, 20.62563739773443 ], [ -103.419947648987076, 20.625220169897197 ], [ -103.41911400938713, 20.625220169897197 ], [ -103.41911400938713, 20.624385714222733 ], [ -103.417863549987189, 20.624385714222733 ], [ -103.417863549987189, 20.6239684863855 ], [ -103.417446730187208, 20.6239684863855 ], [ -103.417446730187208, 20.623551258548268 ], [ -103.414945811387341, 20.623551258548268 ], [ -103.414945811387341, 20.623134030711036 ], [ -103.41452899158736, 20.623134030711036 ], [ -103.41452899158736, 20.622299575036571 ], [ -103.413695351987414, 20.622299575036571 ], [ -103.413695351987414, 20.621882347199339 ], [ -103.413278532187434, 20.621882347199339 ], [ -103.413278532187434, 20.621465119362107 ], [ -103.412444892587473, 20.621465119362107 ], [ -103.412444892587473, 20.621047891524874 ], [ -103.411611252987527, 20.621047891524874 ], [ -103.411611252987527, 20.620630663687642 ], [ -103.411194433187546, 20.620630663687642 ], [ -103.411194433187546, 20.62021343585041 ], [ -103.410360793587586, 20.62021343585041 ], [ -103.410360793587586, 20.61854452450148 ], [ -103.409943973787605, 20.61854452450148 ], [ -103.409943973787605, 20.617710068827016 ], [ -103.409527153987625, 20.617710068827016 ], [ -103.409527153987625, 20.616875613152551 ], [ -103.408276694587698, 20.616875613152551 ], [ -103.408276694587698, 20.616458385315319 ], [ -103.407443054987738, 20.616458385315319 ], [ -103.407443054987738, 20.616041157478087 ], [ -103.407026235187757, 20.616041157478087 ], [ -103.407026235187757, 20.615623929640854 ], [ -103.406609415387791, 20.615623929640854 ], [ -103.406609415387791, 20.615206701803622 ], [ -103.40494213618787, 20.615206701803622 ], [ -103.40494213618787, 20.61478947396639 ], [ -103.403691676787943, 20.61478947396639 ], [ -103.403691676787943, 20.614372246129157 ], [ -103.403274856987963, 20.614372246129157 ], [ -103.403274856987963, 20.613955018291925 ], [ -103.402858037187983, 20.613955018291925 ], [ -103.402858037187983, 20.613537790454693 ], [ -103.402441217388002, 20.613537790454693 ], [ -103.402441217388002, 20.613120562617461 ], [ -103.402024397588022, 20.613120562617461 ], [ -103.402024397588022, 20.612703334780228 ], [ -103.400357118388115, 20.612703334780228 ], [ -103.400357118388115, 20.613120562617461 ], [ -103.399523478788154, 20.613120562617461 ], [ -103.399523478788154, 20.612703334780228 ], [ -103.397439379788267, 20.612703334780228 ], [ -103.397439379788267, 20.613120562617461 ], [ -103.396605740188321, 20.613120562617461 ], [ -103.396605740188321, 20.613537790454693 ], [ -103.393688001588473, 20.613537790454693 ], [ -103.393688001588473, 20.613120562617461 ], [ -103.392437542188532, 20.613120562617461 ], [ -103.392437542188532, 20.612703334780228 ], [ -103.392020722388551, 20.612703334780228 ], [ -103.392020722388551, 20.612286106942996 ], [ -103.391603902588585, 20.612286106942996 ], [ -103.391603902588585, 20.611868879105764 ], [ -103.391187082788605, 20.611868879105764 ], [ -103.391187082788605, 20.611451651268531 ], [ -103.390770262988624, 20.611451651268531 ], [ -103.390770262988624, 20.610617195594067 ], [ -103.390353443188644, 20.610617195594067 ], [ -103.390353443188644, 20.610199967756834 ], [ -103.389936623388664, 20.610199967756834 ], [ -103.389936623388664, 20.609782739919602 ], [ -103.389519803588684, 20.609782739919602 ], [ -103.389519803588684, 20.60936551208237 ], [ -103.387018884788816, 20.60936551208237 ], [ -103.387018884788816, 20.609782739919602 ], [ -103.38660206498885, 20.609782739919602 ], [ -103.38660206498885, 20.610199967756834 ], [ -103.385768425388889, 20.610199967756834 ], [ -103.385768425388889, 20.610617195594067 ], [ -103.385351605588909, 20.610617195594067 ], [ -103.385351605588909, 20.611034423431299 ], [ -103.384101146188982, 20.611034423431299 ], [ -103.384101146188982, 20.611451651268531 ], [ -103.382850686789041, 20.611451651268531 ], [ -103.382850686789041, 20.610617195594067 ], [ -103.382433866989061, 20.610617195594067 ], [ -103.382433866989061, 20.610199967756834 ], [ -103.381600227389114, 20.610199967756834 ], [ -103.381600227389114, 20.609782739919602 ], [ -103.381183407589134, 20.609782739919602 ], [ -103.381183407589134, 20.60936551208237 ], [ -103.380349767989173, 20.60936551208237 ], [ -103.380349767989173, 20.608948284245137 ], [ -103.379932948189193, 20.608948284245137 ], [ -103.379932948189193, 20.608531056407905 ], [ -103.378682488789266, 20.608531056407905 ], [ -103.378682488789266, 20.608113828570673 ], [ -103.378265668989286, 20.608113828570673 ], [ -103.378265668989286, 20.607279372896208 ], [ -103.377848849189306, 20.607279372896208 ], [ -103.377848849189306, 20.606862145058976 ], [ -103.376598389789379, 20.606862145058976 ], [ -103.376598389789379, 20.606444917221744 ], [ -103.376181569989399, 20.606444917221744 ], [ -103.376181569989399, 20.606027689384511 ], [ -103.374931110589458, 20.606027689384511 ], [ -103.374931110589458, 20.606444917221744 ], [ -103.374097470989511, 20.606444917221744 ], [ -103.374097470989511, 20.606027689384511 ], [ -103.37243019178959, 20.606027689384511 ], [ -103.37243019178959, 20.605610461547279 ], [ -103.37201337198961, 20.605610461547279 ], [ -103.37201337198961, 20.605193233710047 ], [ -103.371596552189644, 20.605193233710047 ], [ -103.371596552189644, 20.604776005872814 ], [ -103.371179732389663, 20.604776005872814 ], [ -103.371179732389663, 20.604358778035582 ], [ -103.370346092789703, 20.604358778035582 ], [ -103.370346092789703, 20.60394155019835 ], [ -103.369512453189742, 20.60394155019835 ], [ -103.369512453189742, 20.602689866686653 ], [ -103.369095633389776, 20.602689866686653 ], [ -103.369095633389776, 20.602272638849421 ], [ -103.368678813589796, 20.602272638849421 ], [ -103.368678813589796, 20.601438183174956 ], [ -103.368261993789815, 20.601438183174956 ], [ -103.368261993789815, 20.601020955337724 ], [ -103.367845173989835, 20.601020955337724 ], [ -103.367845173989835, 20.600603727500491 ], [ -103.367428354189855, 20.600603727500491 ], [ -103.367428354189855, 20.600186499663259 ], [ -103.366594714589908, 20.600186499663259 ], [ -103.366594714589908, 20.599769271826027 ], [ -103.365344255189967, 20.599769271826027 ], [ -103.365344255189967, 20.600186499663259 ], [ -103.364510615590007, 20.600186499663259 ], [ -103.364510615590007, 20.600603727500491 ], [ -103.36367697599006, 20.600603727500491 ], [ -103.36367697599006, 20.601020955337724 ], [ -103.36326015619008, 20.601020955337724 ], [ -103.36326015619008, 20.602689866686653 ], [ -103.3628433363901, 20.602689866686653 ], [ -103.3628433363901, 20.60394155019835 ], [ -103.362426516590119, 20.60394155019835 ], [ -103.362426516590119, 20.604358778035582 ], [ -103.361592876990173, 20.604358778035582 ], [ -103.361592876990173, 20.605193233710047 ], [ -103.361176057190193, 20.605193233710047 ], [ -103.361176057190193, 20.605610461547279 ], [ -103.360342417590232, 20.605610461547279 ], [ -103.360342417590232, 20.606027689384511 ], [ -103.359925597790252, 20.606027689384511 ], [ -103.359925597790252, 20.606444917221744 ], [ -103.357841498790364, 20.606444917221744 ], [ -103.357841498790364, 20.606862145058976 ], [ -103.355757399790477, 20.606862145058976 ], [ -103.355757399790477, 20.607279372896208 ], [ -103.355340579990497, 20.607279372896208 ], [ -103.355340579990497, 20.607696600733441 ], [ -103.352422841390649, 20.607696600733441 ], [ -103.352422841390649, 20.608113828570673 ], [ -103.350338742390761, 20.608113828570673 ], [ -103.350338742390761, 20.608531056407905 ], [ -103.348254643390874, 20.608531056407905 ], [ -103.348254643390874, 20.608948284245137 ], [ -103.347421003790913, 20.608948284245137 ], [ -103.347421003790913, 20.60936551208237 ], [ -103.346587364190967, 20.60936551208237 ], [ -103.346587364190967, 20.609782739919602 ], [ -103.345753724591006, 20.609782739919602 ], [ -103.345753724591006, 20.610199967756834 ], [ -103.345336904791026, 20.610199967756834 ], [ -103.345336904791026, 20.610617195594067 ], [ -103.344920084991045, 20.610617195594067 ], [ -103.344920084991045, 20.611034423431299 ], [ -103.342835985991158, 20.611034423431299 ], [ -103.342835985991158, 20.611451651268531 ], [ -103.342419166191178, 20.611451651268531 ], [ -103.342419166191178, 20.611034423431299 ], [ -103.341585526591231, 20.611034423431299 ], [ -103.341585526591231, 20.610617195594067 ], [ -103.340751886991271, 20.610617195594067 ], [ -103.340751886991271, 20.611868879105764 ], [ -103.337834148391423, 20.611868879105764 ], [ -103.337834148391423, 20.611451651268531 ], [ -103.337417328591442, 20.611451651268531 ], [ -103.337417328591442, 20.611034423431299 ], [ -103.336583688991496, 20.611034423431299 ], [ -103.336583688991496, 20.610199967756834 ], [ -103.336166869191516, 20.610199967756834 ], [ -103.336166869191516, 20.609782739919602 ], [ -103.335750049391535, 20.609782739919602 ], [ -103.335750049391535, 20.60936551208237 ], [ -103.335333229591555, 20.60936551208237 ], [ -103.335333229591555, 20.608948284245137 ], [ -103.334916409791575, 20.608948284245137 ], [ -103.334916409791575, 20.60936551208237 ], [ -103.334082770191628, 20.60936551208237 ], [ -103.334082770191628, 20.609782739919602 ], [ -103.333249130591668, 20.609782739919602 ], [ -103.333249130591668, 20.610617195594067 ], [ -103.332832310791687, 20.610617195594067 ], [ -103.332832310791687, 20.611034423431299 ], [ -103.332415490991707, 20.611034423431299 ], [ -103.332415490991707, 20.611451651268531 ], [ -103.327413653391972, 20.611451651268531 ], [ -103.327413653391972, 20.611034423431299 ], [ -103.326580013792025, 20.611034423431299 ], [ -103.326580013792025, 20.610617195594067 ], [ -103.325746374192065, 20.610617195594067 ], [ -103.325746374192065, 20.611034423431299 ], [ -103.323662275192177, 20.611034423431299 ], [ -103.323662275192177, 20.611451651268531 ], [ -103.32157817619229, 20.611451651268531 ], [ -103.32157817619229, 20.611034423431299 ], [ -103.320744536592329, 20.611034423431299 ], [ -103.320744536592329, 20.611451651268531 ], [ -103.317826797992481, 20.611451651268531 ], [ -103.317826797992481, 20.611868879105764 ], [ -103.313241780192726, 20.611868879105764 ], [ -103.313241780192726, 20.611451651268531 ], [ -103.312824960392746, 20.611451651268531 ], [ -103.312824960392746, 20.611034423431299 ], [ -103.312408140592765, 20.611034423431299 ], [ -103.312408140592765, 20.610199967756834 ], [ -103.311991320792799, 20.610199967756834 ], [ -103.311991320792799, 20.608948284245137 ], [ -103.311574500992819, 20.608948284245137 ], [ -103.311574500992819, 20.607696600733441 ], [ -103.311991320792799, 20.607696600733441 ], [ -103.311991320792799, 20.607279372896208 ], [ -103.310740861392858, 20.607279372896208 ], [ -103.310740861392858, 20.606862145058976 ], [ -103.308239942592991, 20.606862145058976 ], [ -103.308239942592991, 20.607279372896208 ], [ -103.30740630299303, 20.607279372896208 ], [ -103.30740630299303, 20.607696600733441 ], [ -103.306572663393084, 20.607696600733441 ], [ -103.306572663393084, 20.608113828570673 ], [ -103.306155843593103, 20.608113828570673 ], [ -103.306155843593103, 20.608531056407905 ], [ -103.305322203993143, 20.608531056407905 ], [ -103.305322203993143, 20.608948284245137 ], [ -103.304905384193177, 20.608948284245137 ], [ -103.304905384193177, 20.60936551208237 ], [ -103.303238104993255, 20.60936551208237 ], [ -103.303238104993255, 20.610199967756834 ], [ -103.302404465393309, 20.610199967756834 ], [ -103.302404465393309, 20.610617195594067 ], [ -103.301987645593329, 20.610617195594067 ], [ -103.301987645593329, 20.611034423431299 ], [ -103.300737186193388, 20.611034423431299 ], [ -103.300737186193388, 20.611451651268531 ], [ -103.29823626739352, 20.611451651268531 ], [ -103.29823626739352, 20.611034423431299 ], [ -103.296568988193613, 20.611034423431299 ], [ -103.296568988193613, 20.610617195594067 ], [ -103.296152168393633, 20.610617195594067 ], [ -103.296152168393633, 20.611034423431299 ], [ -103.295318528793672, 20.611034423431299 ], [ -103.295318528793672, 20.611451651268531 ], [ -103.294901708993706, 20.611451651268531 ], [ -103.294901708993706, 20.611868879105764 ], [ -103.294484889193726, 20.611868879105764 ], [ -103.294484889193726, 20.612286106942996 ], [ -103.293234429793785, 20.612286106942996 ], [ -103.293234429793785, 20.612703334780228 ], [ -103.292817609993804, 20.612703334780228 ], [ -103.292817609993804, 20.613120562617461 ], [ -103.291150330793897, 20.613120562617461 ], [ -103.291150330793897, 20.613537790454693 ], [ -103.28989987139397, 20.613537790454693 ], [ -103.28989987139397, 20.613120562617461 ], [ -103.28948305159399, 20.613120562617461 ], [ -103.28948305159399, 20.613537790454693 ], [ -103.288649411994029, 20.613537790454693 ], [ -103.288649411994029, 20.613120562617461 ], [ -103.288232592194049, 20.613120562617461 ], [ -103.288232592194049, 20.612286106942996 ], [ -103.287815772394069, 20.612286106942996 ], [ -103.287815772394069, 20.611868879105764 ], [ -103.286982132794122, 20.611868879105764 ], [ -103.286982132794122, 20.612286106942996 ], [ -103.286565312994142, 20.612286106942996 ], [ -103.286565312994142, 20.612703334780228 ], [ -103.286148493194162, 20.612703334780228 ], [ -103.286148493194162, 20.613120562617461 ], [ -103.284481213994255, 20.613120562617461 ], [ -103.284481213994255, 20.613537790454693 ], [ -103.283647574394294, 20.613537790454693 ], [ -103.283647574394294, 20.613120562617461 ], [ -103.281563475394407, 20.613120562617461 ], [ -103.281563475394407, 20.613537790454693 ], [ -103.280313015994466, 20.613537790454693 ], [ -103.280313015994466, 20.613120562617461 ], [ -103.2798961961945, 20.613120562617461 ], [ -103.2798961961945, 20.612703334780228 ], [ -103.279479376394519, 20.612703334780228 ], [ -103.279479376394519, 20.613120562617461 ], [ -103.278645736794559, 20.613120562617461 ], [ -103.278645736794559, 20.613537790454693 ], [ -103.278228916994578, 20.613537790454693 ], [ -103.278228916994578, 20.614372246129157 ], [ -103.276561637794671, 20.614372246129157 ], [ -103.276561637794671, 20.61478947396639 ], [ -103.274894358594764, 20.61478947396639 ], [ -103.274894358594764, 20.615623929640854 ], [ -103.272810259594863, 20.615623929640854 ], [ -103.272810259594863, 20.616041157478087 ], [ -103.270309340794995, 20.616041157478087 ], [ -103.270309340794995, 20.616458385315319 ], [ -103.269892520995029, 20.616458385315319 ], [ -103.269892520995029, 20.616041157478087 ], [ -103.269475701195049, 20.616041157478087 ], [ -103.269475701195049, 20.615623929640854 ], [ -103.267391602195161, 20.615623929640854 ], [ -103.267391602195161, 20.616041157478087 ], [ -103.26572432299524, 20.616041157478087 ], [ -103.26572432299524, 20.616458385315319 ], [ -103.264890683395294, 20.616458385315319 ], [ -103.264890683395294, 20.616041157478087 ], [ -103.264057043795333, 20.616041157478087 ], [ -103.264057043795333, 20.615623929640854 ], [ -103.263640223995353, 20.615623929640854 ], [ -103.263640223995353, 20.615206701803622 ], [ -103.261556124995465, 20.615206701803622 ], [ -103.261556124995465, 20.61478947396639 ], [ -103.261139305195485, 20.61478947396639 ], [ -103.261139305195485, 20.615206701803622 ], [ -103.260305665595524, 20.615206701803622 ], [ -103.260305665595524, 20.615623929640854 ], [ -103.259888845795558, 20.615623929640854 ], [ -103.259888845795558, 20.616041157478087 ], [ -103.259055206195598, 20.616041157478087 ], [ -103.259055206195598, 20.616458385315319 ], [ -103.258638386395617, 20.616458385315319 ], [ -103.258638386395617, 20.616875613152551 ], [ -103.25697110719571, 20.616875613152551 ], [ -103.25697110719571, 20.617710068827016 ], [ -103.254887008195823, 20.617710068827016 ], [ -103.254887008195823, 20.617292840989784 ], [ -103.252386089395955, 20.617292840989784 ], [ -103.252386089395955, 20.618127296664248 ], [ -103.249051530996127, 20.618127296664248 ], [ -103.249051530996127, 20.617710068827016 ], [ -103.248217891396166, 20.617710068827016 ], [ -103.248217891396166, 20.617292840989784 ], [ -103.24738425179622, 20.617292840989784 ], [ -103.24738425179622, 20.618127296664248 ], [ -103.2478010715962, 20.618127296664248 ], [ -103.2478010715962, 20.619796208013177 ], [ -103.246967431996239, 20.619796208013177 ], [ -103.246967431996239, 20.620630663687642 ], [ -103.244466513196372, 20.620630663687642 ], [ -103.244466513196372, 20.621047891524874 ], [ -103.244049693396391, 20.621047891524874 ], [ -103.244049693396391, 20.621465119362107 ], [ -103.243216053796431, 20.621465119362107 ], [ -103.243216053796431, 20.622716802873803 ], [ -103.241548774596524, 20.622716802873803 ], [ -103.241548774596524, 20.623134030711036 ], [ -103.241131954796543, 20.623134030711036 ], [ -103.241131954796543, 20.623551258548268 ], [ -103.240715134996563, 20.623551258548268 ], [ -103.240715134996563, 20.6239684863855 ], [ -103.240298315196597, 20.6239684863855 ], [ -103.240298315196597, 20.626054625571662 ], [ -103.240715134996563, 20.626054625571662 ], [ -103.240715134996563, 20.627306309083359 ], [ -103.241131954796543, 20.627306309083359 ], [ -103.241131954796543, 20.628557992595056 ], [ -103.240715134996563, 20.628557992595056 ], [ -103.240715134996563, 20.62939244826952 ], [ -103.241131954796543, 20.62939244826952 ], [ -103.241131954796543, 20.630226903943985 ], [ -103.239881495396617, 20.630226903943985 ], [ -103.239881495396617, 20.630644131781217 ], [ -103.239464675596636, 20.630644131781217 ], [ -103.239464675596636, 20.63106135961845 ], [ -103.239047855796656, 20.63106135961845 ], [ -103.239047855796656, 20.631895815292914 ], [ -103.238631035996676, 20.631895815292914 ], [ -103.238631035996676, 20.632313043130146 ], [ -103.238214216196695, 20.632313043130146 ], [ -103.238214216196695, 20.633564726641843 ], [ -103.237797396396729, 20.633564726641843 ] ] ], [ [ [ -103.238631035996676, 20.633564726641843 ], [ -103.238631035996676, 20.633981954479076 ], [ -103.238214216196695, 20.633981954479076 ], [ -103.238214216196695, 20.633564726641843 ], [ -103.238631035996676, 20.633564726641843 ] ] ] ] } }
]
}
