{"type": "FeatureCollection", "features": [{"type": "Feature", "geometry": {"type": "Point", "coordinates": [-103.4458266, 20.63008352]}, "properties": {"nombre": "BELTICOS", "giro": "Conservación de frutas y verduras por procesos distintos a la congelación y la deshidratación", "scian": "311422", "scian3": "311", "etiqueta": "Alimentos", "nivel": "Medio-Alto", "color": "#fc8d59", "estrato": "251 y más personas"}}, {"type": "Feature", "geometry": {"type": "Point", "coordinates": [-103.40247172, 20.58192548]}, "properties": {"nombre": "CARAMELOS DE LA ROSA", "giro": "Elaboración de chocolate y productos de chocolate", "scian": "311350", "scian3": "311", "etiqueta": "Alimentos", "nivel": "Medio-Alto", "color": "#fc8d59", "estrato": "251 y más personas"}}, {"type": "Feature", "geometry": {"type": "Point", "coordinates": [-103.40060724, 20.60624417]}, "properties": {"nombre": "CASA CUERVO", "giro": "Elaboración de tequila", "scian": "312144", "scian3": "312", "etiqueta": "Bebidas/Tabaco", "nivel": "Medio-Alto", "color": "#fc8d59", "estrato": "251 y más personas"}}, {"type": "Feature", "geometry": {"type": "Point", "coordinates": [-103.41865787, 20.61132723]}, "properties": {"nombre": "CASA CUERVO EDISA", "giro": "Elaboración de tequila", "scian": "312144", "scian3": "312", "etiqueta": "Bebidas/Tabaco", "nivel": "Medio-Alto", "color": "#fc8d59", "estrato": "251 y más personas"}}, {"type": "Feature", "geometry": {"type": "Point", "coordinates": [-103.40137096, 20.5849233]}, "properties": {"nombre": "CHUPALETAS", "giro": "Elaboración de dulces, chicles y productos de confitería que no sean de chocolate", "scian": "311340", "scian3": "311", "etiqueta": "Alimentos", "nivel": "Medio-Alto", "color": "#fc8d59", "estrato": "251 y más personas"}}, {"type": "Feature", "geometry": {"type": "Point", "coordinates": [-103.4026572, 20.60748808]}, "properties": {"nombre": "DELIMEX DE MEXICO", "giro": "Elaboración de condimentos y aderezos", "scian": "311940", "scian3": "311", "etiqueta": "Alimentos", "nivel": "Medio-Alto", "color": "#fc8d59", "estrato": "251 y más personas"}}, {"type": "Feature", "geometry": {"type": "Point", "coordinates": [-103.4740671, 20.53461181]}, "properties": {"nombre": "GUSTINOS", "giro": "Elaboración de botanas", "scian": "311910", "scian3": "311", "etiqueta": "Alimentos", "nivel": "Medio-Alto", "color": "#fc8d59", "estrato": "251 y más personas"}}, {"type": "Feature", "geometry": {"type": "Point", "coordinates": [-103.26637172, 20.54817788]}, "properties": {"nombre": "HERSHEY MEXICO", "giro": "Elaboración de chocolate y productos de chocolate", "scian": "311350", "scian3": "311", "etiqueta": "Alimentos", "nivel": "Medio-Alto", "color": "#fc8d59", "estrato": "251 y más personas"}}, {"type": "Feature", "geometry": {"type": "Point", "coordinates": [-103.24243589, 20.51197355]}, "properties": {"nombre": "HIGH PROTEIN DE MEXICO", "giro": "Conservación de guisos y otros alimentos preparados por procesos distintos a la congelación", "scian": "311423", "scian3": "311", "etiqueta": "Alimentos", "nivel": "Medio-Alto", "color": "#fc8d59", "estrato": "251 y más personas"}}, {"type": "Feature", "geometry": {"type": "Point", "coordinates": [-103.39807227, 20.60411472]}, "properties": {"nombre": "INDUSTRIALIZADORA INTEGRAL DEL AGAVE", "giro": "Elaboración de tequila", "scian": "312144", "scian3": "312", "etiqueta": "Bebidas/Tabaco", "nivel": "Medio-Alto", "color": "#fc8d59", "estrato": "251 y más personas"}}, {"type": "Feature", "geometry": {"type": "Point", "coordinates": [-103.36545542, 20.55887692]}, "properties": {"nombre": "MASECA", "giro": "Elaboración de harina de maíz", "scian": "311213", "scian3": "311", "etiqueta": "Alimentos", "nivel": "Medio-Alto", "color": "#fc8d59", "estrato": "251 y más personas"}}, {"type": "Feature", "geometry": {"type": "Point", "coordinates": [-103.35922921, 20.5765795]}, "properties": {"nombre": "PLANTA LALA GUADALAJARA", "giro": "Elaboración de leche líquida", "scian": "311511", "scian3": "311", "etiqueta": "Alimentos", "nivel": "Medio-Alto", "color": "#fc8d59", "estrato": "251 y más personas"}}, {"type": "Feature", "geometry": {"type": "Point", "coordinates": [-103.33813709, 20.5687071]}, "properties": {"nombre": "PROCESADORA DE ALIMENTOS CALE", "giro": "Elaboración de dulces, chicles y productos de confitería que no sean de chocolate", "scian": "311340", "scian3": "311", "etiqueta": "Alimentos", "nivel": "Medio-Alto", "color": "#fc8d59", "estrato": "251 y más personas"}}, {"type": "Feature", "geometry": {"type": "Point", "coordinates": [-103.2318273, 20.48093069]}, "properties": {"nombre": "TORAY ADVANCED TEXTILE MEXICO", "giro": "Fabricación de telas anchas de tejido de trama", "scian": "313210", "scian3": "313", "etiqueta": "Textil (insumos)", "nivel": "Medio-Alto", "color": "#fc8d59", "estrato": "251 y más personas"}}, {"type": "Feature", "geometry": {"type": "Point", "coordinates": [-103.24719558, 20.51305634]}, "properties": {"nombre": "VIMIFOS", "giro": "Elaboración de alimentos para animales", "scian": "311110", "scian3": "311", "etiqueta": "Alimentos", "nivel": "Medio-Alto", "color": "#fc8d59", "estrato": "251 y más personas"}}, {"type": "Feature", "geometry": {"type": "Point", "coordinates": [-103.3532417, 20.57663953]}, "properties": {"nombre": "BIO PAPPEL", "giro": "Fabricación de envases de cartón", "scian": "322210", "scian3": "322", "etiqueta": "Papel/Celulosa", "nivel": "Alto", "color": "#d73027", "estrato": "251 y más personas"}}, {"type": "Feature", "geometry": {"type": "Point", "coordinates": [-103.22427044, 20.59045719]}, "properties": {"nombre": "BOEHRINGER INGELHEIM VETMEDICA", "giro": "Fabricación de preparaciones farmacéuticas", "scian": "325412", "scian3": "325", "etiqueta": "Química", "nivel": "Alto", "color": "#d73027", "estrato": "251 y más personas"}}, {"type": "Feature", "geometry": {"type": "Point", "coordinates": [-103.44202002, 20.58609387]}, "properties": {"nombre": "CONVERTIDORA GMV", "giro": "Fabricación de bolsas y películas de plástico flexible", "scian": "326110", "scian3": "326", "etiqueta": "Plástico/Hule", "nivel": "Medio-Alto", "color": "#fc8d59", "estrato": "251 y más personas"}}, {"type": "Feature", "geometry": {"type": "Point", "coordinates": [-103.23633536, 20.48762145]}, "properties": {"nombre": "COOPERTIRE & ROBEERCOMPANY", "giro": "Fabricación de llantas y cámaras", "scian": "326211", "scian3": "326", "etiqueta": "Plástico/Hule", "nivel": "Medio-Alto", "color": "#fc8d59", "estrato": "251 y más personas"}}, {"type": "Feature", "geometry": {"type": "Point", "coordinates": [-103.4690716, 20.53393869]}, "properties": {"nombre": "CORRUGADOS HEAVY BOX", "giro": "Fabricación de otros productos de cartón y papel", "scian": "322299", "scian3": "322", "etiqueta": "Papel/Celulosa", "nivel": "Alto", "color": "#d73027", "estrato": "251 y más personas"}}, {"type": "Feature", "geometry": {"type": "Point", "coordinates": [-103.46904025, 20.53393016]}, "properties": {"nombre": "CORRUGADOS HEAVY BOX", "giro": "Fabricación de envases de cartón", "scian": "322210", "scian3": "322", "etiqueta": "Papel/Celulosa", "nivel": "Alto", "color": "#d73027", "estrato": "251 y más personas"}}, {"type": "Feature", "geometry": {"type": "Point", "coordinates": [-103.22546818, 20.49432095]}, "properties": {"nombre": "DSM NUTRITIONAL PRODUCTS MEXICO", "giro": "Fabricación de preparaciones farmacéuticas", "scian": "325412", "scian3": "325", "etiqueta": "Química", "nivel": "Alto", "color": "#d73027", "estrato": "251 y más personas"}}, {"type": "Feature", "geometry": {"type": "Point", "coordinates": [-103.26119916, 20.54121152]}, "properties": {"nombre": "EMPAQUES MODERNOS DE GUADALAJARA", "giro": "Fabricación de envases de cartón", "scian": "322210", "scian3": "322", "etiqueta": "Papel/Celulosa", "nivel": "Alto", "color": "#d73027", "estrato": "251 y más personas"}}, {"type": "Feature", "geometry": {"type": "Point", "coordinates": [-103.44383279, 20.5551518]}, "properties": {"nombre": "ENVASES PLASTICOS INDUSTRIALES DE GUADALAJARA", "giro": "Fabricación de botellas de plástico", "scian": "326160", "scian3": "326", "etiqueta": "Plástico/Hule", "nivel": "Medio-Alto", "color": "#fc8d59", "estrato": "251 y más personas"}}, {"type": "Feature", "geometry": {"type": "Point", "coordinates": [-103.2538378, 20.53207794]}, "properties": {"nombre": "FÁBRICA DE PAPEL SAN FRANCISCO", "giro": "Fabricación de papel a partir de pulpa", "scian": "322122", "scian3": "322", "etiqueta": "Papel/Celulosa", "nivel": "Alto", "color": "#d73027", "estrato": "251 y más personas"}}, {"type": "Feature", "geometry": {"type": "Point", "coordinates": [-103.29180452, 20.52887173]}, "properties": {"nombre": "FABRICA DE SULFATO EL AGUILA", "giro": "Fabricación de otros productos químicos básicos inorgánicos", "scian": "325180", "scian3": "325", "etiqueta": "Química", "nivel": "Alto", "color": "#d73027", "estrato": "251 y más personas"}}, {"type": "Feature", "geometry": {"type": "Point", "coordinates": [-103.21652787, 20.57766372]}, "properties": {"nombre": "FANTASY", "giro": "Fabricación de productos de plástico para el hogar con y sin reforzamiento", "scian": "326191", "scian3": "326", "etiqueta": "Plástico/Hule", "nivel": "Medio-Alto", "color": "#fc8d59", "estrato": "251 y más personas"}}, {"type": "Feature", "geometry": {"type": "Point", "coordinates": [-103.40364931, 20.60781431]}, "properties": {"nombre": "HELLERMANN TYTON", "giro": "Fabricación de tubería y conexiones, y tubos para embalaje", "scian": "326120", "scian3": "326", "etiqueta": "Plástico/Hule", "nivel": "Medio-Alto", "color": "#fc8d59", "estrato": "251 y más personas"}}, {"type": "Feature", "geometry": {"type": "Point", "coordinates": [-103.31589787, 20.56714914]}, "properties": {"nombre": "LIFERPAL MD", "giro": "Fabricación de preparaciones farmacéuticas", "scian": "325412", "scian3": "325", "etiqueta": "Química", "nivel": "Alto", "color": "#d73027", "estrato": "251 y más personas"}}, {"type": "Feature", "geometry": {"type": "Point", "coordinates": [-103.2451588, 20.51220776]}, "properties": {"nombre": "LITOGRAFIA D ORTEGA", "giro": "Fabricación de envases de cartón", "scian": "322210", "scian3": "322", "etiqueta": "Papel/Celulosa", "nivel": "Alto", "color": "#d73027", "estrato": "251 y más personas"}}, {"type": "Feature", "geometry": {"type": "Point", "coordinates": [-103.28412427, 20.58358417]}, "properties": {"nombre": "OMNILIFE MANUFACTURA", "giro": "Fabricación de preparaciones farmacéuticas", "scian": "325412", "scian3": "325", "etiqueta": "Química", "nivel": "Alto", "color": "#d73027", "estrato": "251 y más personas"}}, {"type": "Feature", "geometry": {"type": "Point", "coordinates": [-103.46777103, 20.55240089]}, "properties": {"nombre": "PERTEK ERLER", "giro": "Fabricación de otros productos de plástico sin reforzamiento", "scian": "326199", "scian3": "326", "etiqueta": "Plástico/Hule", "nivel": "Medio-Alto", "color": "#fc8d59", "estrato": "251 y más personas"}}, {"type": "Feature", "geometry": {"type": "Point", "coordinates": [-103.36876136, 20.57944076]}, "properties": {"nombre": "PET DE OCCIDENTE", "giro": "Fabricación de botellas de plástico", "scian": "326160", "scian3": "326", "etiqueta": "Plástico/Hule", "nivel": "Medio-Alto", "color": "#fc8d59", "estrato": "251 y más personas"}}, {"type": "Feature", "geometry": {"type": "Point", "coordinates": [-103.43684692, 20.59940295]}, "properties": {"nombre": "PRODUCTOS FARMACEUTICOS COLLINS", "giro": "Fabricación de preparaciones farmacéuticas", "scian": "325412", "scian3": "325", "etiqueta": "Química", "nivel": "Alto", "color": "#d73027", "estrato": "251 y más personas"}}, {"type": "Feature", "geometry": {"type": "Point", "coordinates": [-103.40404929, 20.59993258]}, "properties": {"nombre": "PROTECPACK", "giro": "Fabricación de envases de cartón", "scian": "322210", "scian3": "322", "etiqueta": "Papel/Celulosa", "nivel": "Alto", "color": "#d73027", "estrato": "251 y más personas"}}, {"type": "Feature", "geometry": {"type": "Point", "coordinates": [-103.41637638, 20.61203429]}, "properties": {"nombre": "SUNNINGDALE TECHNOLOGIES", "giro": "Fabricación de autopartes de plástico con y sin reforzamiento", "scian": "326192", "scian3": "326", "etiqueta": "Plástico/Hule", "nivel": "Medio-Alto", "color": "#fc8d59", "estrato": "251 y más personas"}}, {"type": "Feature", "geometry": {"type": "Point", "coordinates": [-103.44883612, 20.58570856]}, "properties": {"nombre": "TREND TECHNOLOGIES MEXICO", "giro": "Fabricación de autopartes de plástico con y sin reforzamiento", "scian": "326192", "scian3": "326", "etiqueta": "Plástico/Hule", "nivel": "Medio-Alto", "color": "#fc8d59", "estrato": "251 y más personas"}}, {"type": "Feature", "geometry": {"type": "Point", "coordinates": [-103.23213989, 20.49039659]}, "properties": {"nombre": "APTIV CONTRACT SERVICES", "giro": "Fabricación de equipo eléctrico y electrónico y sus partes para vehículos automotores", "scian": "336320", "scian3": "336", "etiqueta": "Equipo transporte", "nivel": "Medio", "color": "#fee08b", "estrato": "251 y más personas"}}, {"type": "Feature", "geometry": {"type": "Point", "coordinates": [-103.23258945, 20.50461865]}, "properties": {"nombre": "ARBOMEX LCM", "giro": "Fabricación de productos metálicos forjados y troquelados", "scian": "332110", "scian3": "332", "etiqueta": "Productos metálicos", "nivel": "Medio", "color": "#fee08b", "estrato": "251 y más personas"}}, {"type": "Feature", "geometry": {"type": "Point", "coordinates": [-103.40517844, 20.60820272]}, "properties": {"nombre": "ASSA ABLOY OCCIDENTE", "giro": "Fabricación de herrajes y cerraduras", "scian": "332510", "scian3": "332", "etiqueta": "Productos metálicos", "nivel": "Medio", "color": "#fee08b", "estrato": "251 y más personas"}}, {"type": "Feature", "geometry": {"type": "Point", "coordinates": [-103.32035449, 20.57092737]}, "properties": {"nombre": "BENCHMARK ELECTRONICS DE MEXICO", "giro": "Fabricación de computadoras y equipo periférico", "scian": "334110", "scian3": "334", "etiqueta": "Electrónica", "nivel": "Medio", "color": "#fee08b", "estrato": "251 y más personas"}}, {"type": "Feature", "geometry": {"type": "Point", "coordinates": [-103.24189555, 20.51247926]}, "properties": {"nombre": "BORGWARNER MORSE SYSTEMS MEXICO", "giro": "Fabricación de partes de sistemas de transmisión para vehículos automotores", "scian": "336350", "scian3": "336", "etiqueta": "Equipo transporte", "nivel": "Medio", "color": "#fee08b", "estrato": "251 y más personas"}}, {"type": "Feature", "geometry": {"type": "Point", "coordinates": [-103.34601098, 20.57227494]}, "properties": {"nombre": "BTV MEXICANA", "giro": "Fabricación de otros productos metálicos", "scian": "332999", "scian3": "332", "etiqueta": "Productos metálicos", "nivel": "Medio", "color": "#fee08b", "estrato": "251 y más personas"}}, {"type": "Feature", "geometry": {"type": "Point", "coordinates": [-103.44355319, 20.58911505]}, "properties": {"nombre": "CONTINENTAL AUTOMOTIVE GUADALAJARA MEXICO", "giro": "Fabricación de equipo eléctrico y electrónico y sus partes para vehículos automotores", "scian": "336320", "scian3": "336", "etiqueta": "Equipo transporte", "nivel": "Medio", "color": "#fee08b", "estrato": "251 y más personas"}}, {"type": "Feature", "geometry": {"type": "Point", "coordinates": [-103.45969925, 20.55738365]}, "properties": {"nombre": "CONTINENTAL AUTOMOTIVE GUADALAJARA MEXICO", "giro": "Fabricación de equipo eléctrico y electrónico y sus partes para vehículos automotores", "scian": "336320", "scian3": "336", "etiqueta": "Equipo transporte", "nivel": "Medio", "color": "#fee08b", "estrato": "251 y más personas"}}, {"type": "Feature", "geometry": {"type": "Point", "coordinates": [-103.40674296, 20.60817479]}, "properties": {"nombre": "CONTINENTAL AUTOMOTIVE GUADALAJARA MEXICO", "giro": "Fabricación de equipo eléctrico y electrónico y sus partes para vehículos automotores", "scian": "336320", "scian3": "336", "etiqueta": "Equipo transporte", "nivel": "Medio", "color": "#fee08b", "estrato": "251 y más personas"}}, {"type": "Feature", "geometry": {"type": "Point", "coordinates": [-103.40337034, 20.60773312]}, "properties": {"nombre": "ELECTRI-CORD", "giro": "Fabricación de cables de conducción eléctrica", "scian": "335920", "scian3": "335", "etiqueta": "Acc. eléctricos", "nivel": "Medio", "color": "#fee08b", "estrato": "251 y más personas"}}, {"type": "Feature", "geometry": {"type": "Point", "coordinates": [-103.24717517, 20.51929002]}, "properties": {"nombre": "ESTRAL ENERGY", "giro": "Fabricación de estructuras metálicas", "scian": "332310", "scian3": "332", "etiqueta": "Productos metálicos", "nivel": "Medio", "color": "#fee08b", "estrato": "251 y más personas"}}, {"type": "Feature", "geometry": {"type": "Point", "coordinates": [-103.36212111, 20.57817066]}, "properties": {"nombre": "FIBRAS OPTICAS DE MEXICO", "giro": "Fabricación de cables de conducción eléctrica", "scian": "335920", "scian3": "335", "etiqueta": "Acc. eléctricos", "nivel": "Medio", "color": "#fee08b", "estrato": "251 y más personas"}}, {"type": "Feature", "geometry": {"type": "Point", "coordinates": [-103.45248994, 20.57549996]}, "properties": {"nombre": "FLEXTRONICS TECHNOLOGIES MÉXICO", "giro": "Fabricación de componentes electrónicos", "scian": "334410", "scian3": "334", "etiqueta": "Electrónica", "nivel": "Medio", "color": "#fee08b", "estrato": "251 y más personas"}}, {"type": "Feature", "geometry": {"type": "Point", "coordinates": [-103.40190367, 20.60714018]}, "properties": {"nombre": "HELLA AUTOMOTIVE MEXICO", "giro": "Fabricación de equipo eléctrico y electrónico y sus partes para vehículos automotores", "scian": "336320", "scian3": "336", "etiqueta": "Equipo transporte", "nivel": "Medio", "color": "#fee08b", "estrato": "251 y más personas"}}, {"type": "Feature", "geometry": {"type": "Point", "coordinates": [-103.4046409, 20.60807782]}, "properties": {"nombre": "HELLA AUTOMOTIVE MEXICO", "giro": "Fabricación de equipo eléctrico y electrónico y sus partes para vehículos automotores", "scian": "336320", "scian3": "336", "etiqueta": "Equipo transporte", "nivel": "Medio", "color": "#fee08b", "estrato": "251 y más personas"}}, {"type": "Feature", "geometry": {"type": "Point", "coordinates": [-103.28130457, 20.50538708]}, "properties": {"nombre": "HELLA AUTOMOTIVE MEXICO", "giro": "Fabricación de equipo eléctrico y electrónico y sus partes para vehículos automotores", "scian": "336320", "scian3": "336", "etiqueta": "Equipo transporte", "nivel": "Medio", "color": "#fee08b", "estrato": "251 y más personas"}}, {"type": "Feature", "geometry": {"type": "Point", "coordinates": [-103.28099538, 20.50468439]}, "properties": {"nombre": "HELLA AUTOMOTIVE MEXICO", "giro": "Fabricación de equipo eléctrico y electrónico y sus partes para vehículos automotores", "scian": "336320", "scian3": "336", "etiqueta": "Equipo transporte", "nivel": "Medio", "color": "#fee08b", "estrato": "251 y más personas"}}, {"type": "Feature", "geometry": {"type": "Point", "coordinates": [-103.40420043, 20.60797136]}, "properties": {"nombre": "HELLA MEXICO TOOLING", "giro": "Fabricación de equipo eléctrico y electrónico y sus partes para vehículos automotores", "scian": "336320", "scian3": "336", "etiqueta": "Equipo transporte", "nivel": "Medio", "color": "#fee08b", "estrato": "251 y más personas"}}, {"type": "Feature", "geometry": {"type": "Point", "coordinates": [-103.24140934, 20.52065122]}, "properties": {"nombre": "HELLA MEXICO TOOLING", "giro": "Fabricación de equipo eléctrico y electrónico y sus partes para vehículos automotores", "scian": "336320", "scian3": "336", "etiqueta": "Equipo transporte", "nivel": "Medio", "color": "#fee08b", "estrato": "251 y más personas"}}, {"type": "Feature", "geometry": {"type": "Point", "coordinates": [-103.295652, 20.56541423]}, "properties": {"nombre": "IBM DE MEXICO COMERCIALIZACION Y SERVICIOS", "giro": "Fabricación de computadoras y equipo periférico", "scian": "334110", "scian3": "334", "etiqueta": "Electrónica", "nivel": "Medio", "color": "#fee08b", "estrato": "251 y más personas"}}, {"type": "Feature", "geometry": {"type": "Point", "coordinates": [-103.4386376, 20.58053664]}, "properties": {"nombre": "IKOR MEXICO", "giro": "Fabricación de componentes electrónicos", "scian": "334410", "scian3": "334", "etiqueta": "Electrónica", "nivel": "Medio", "color": "#fee08b", "estrato": "251 y más personas"}}, {"type": "Feature", "geometry": {"type": "Point", "coordinates": [-103.33148, 20.55413669]}, "properties": {"nombre": "INCELL AS", "giro": "Fabricación de equipo y aparatos de distribución de energía eléctrica", "scian": "335312", "scian3": "335", "etiqueta": "Acc. eléctricos", "nivel": "Medio", "color": "#fee08b", "estrato": "251 y más personas"}}, {"type": "Feature", "geometry": {"type": "Point", "coordinates": [-103.24719078, 20.51973467]}, "properties": {"nombre": "INTEGRATED MICRO ELECTRONICS MEXICO", "giro": "Fabricación de componentes electrónicos", "scian": "334410", "scian3": "334", "etiqueta": "Electrónica", "nivel": "Medio", "color": "#fee08b", "estrato": "251 y más personas"}}, {"type": "Feature", "geometry": {"type": "Point", "coordinates": [-103.24476069, 20.51885304]}, "properties": {"nombre": "MANNESMANN PRECISION TUBES MEXICO", "giro": "Fabricación de otros productos de hierro y acero", "scian": "331220", "scian3": "331", "etiqueta": "Metales básicos", "nivel": "Alto", "color": "#d73027", "estrato": "251 y más personas"}}, {"type": "Feature", "geometry": {"type": "Point", "coordinates": [-103.31465852, 20.56888626]}, "properties": {"nombre": "MOLEX DE MEXICO", "giro": "Fabricación de computadoras y equipo periférico", "scian": "334110", "scian3": "334", "etiqueta": "Electrónica", "nivel": "Medio", "color": "#fee08b", "estrato": "251 y más personas"}}, {"type": "Feature", "geometry": {"type": "Point", "coordinates": [-103.31416822, 20.56823404]}, "properties": {"nombre": "PCE PARAGON SOLUTION MEXICO", "giro": "Fabricación de componentes electrónicos", "scian": "334410", "scian3": "334", "etiqueta": "Electrónica", "nivel": "Medio", "color": "#fee08b", "estrato": "251 y más personas"}}, {"type": "Feature", "geometry": {"type": "Point", "coordinates": [-103.3386659, 20.57832422]}, "properties": {"nombre": "PCE PARAGON SOLUTIONS MEXICO", "giro": "Fabricación de computadoras y equipo periférico", "scian": "334110", "scian3": "334", "etiqueta": "Electrónica", "nivel": "Medio", "color": "#fee08b", "estrato": "251 y más personas"}}, {"type": "Feature", "geometry": {"type": "Point", "coordinates": [-103.46073243, 20.5596984]}, "properties": {"nombre": "POK CASTINGS", "giro": "Moldeo por fundición de piezas de hierro y acero", "scian": "331510", "scian3": "331", "etiqueta": "Metales básicos", "nivel": "Alto", "color": "#d73027", "estrato": "251 y más personas"}}, {"type": "Feature", "geometry": {"type": "Point", "coordinates": [-103.24724815, 20.49226789]}, "properties": {"nombre": "RECAL ESTRUCTURAS", "giro": "Fabricación de estructuras metálicas", "scian": "332310", "scian3": "332", "etiqueta": "Productos metálicos", "nivel": "Medio", "color": "#fee08b", "estrato": "251 y más personas"}}, {"type": "Feature", "geometry": {"type": "Point", "coordinates": [-103.23563195, 20.51028205]}, "properties": {"nombre": "REGAL BELOIT DE GUADALAJARA", "giro": "Fabricación de baleros y rodamientos", "scian": "332991", "scian3": "332", "etiqueta": "Productos metálicos", "nivel": "Medio", "color": "#fee08b", "estrato": "251 y más personas"}}, {"type": "Feature", "geometry": {"type": "Point", "coordinates": [-103.3138567, 20.57491423]}, "properties": {"nombre": "SANMINA SC SYSTEMS DE MEXICO PLANTA 8", "giro": "Fabricación de computadoras y equipo periférico", "scian": "334110", "scian3": "334", "etiqueta": "Electrónica", "nivel": "Medio", "color": "#fee08b", "estrato": "251 y más personas"}}, {"type": "Feature", "geometry": {"type": "Point", "coordinates": [-103.3138591, 20.57491939]}, "properties": {"nombre": "SANMINA SCI SYSTEMS DE MEXICO", "giro": "Fabricación de computadoras y equipo periférico", "scian": "334110", "scian3": "334", "etiqueta": "Electrónica", "nivel": "Medio", "color": "#fee08b", "estrato": "251 y más personas"}}, {"type": "Feature", "geometry": {"type": "Point", "coordinates": [-103.27863173, 20.50094022]}, "properties": {"nombre": "SANMINA SCI SYSTEMS DE MEXICO PLANTA 10", "giro": "Fabricación de componentes electrónicos", "scian": "334410", "scian3": "334", "etiqueta": "Electrónica", "nivel": "Medio", "color": "#fee08b", "estrato": "251 y más personas"}}, {"type": "Feature", "geometry": {"type": "Point", "coordinates": [-103.2758753, 20.49501457]}, "properties": {"nombre": "SANMINA SCI SYSTEMS DE MEXICO PLANTA 2", "giro": "Fabricación de computadoras y equipo periférico", "scian": "334110", "scian3": "334", "etiqueta": "Electrónica", "nivel": "Medio", "color": "#fee08b", "estrato": "251 y más personas"}}, {"type": "Feature", "geometry": {"type": "Point", "coordinates": [-103.27328863, 20.49173347]}, "properties": {"nombre": "SANMINA SCI SYSTEMS DE MEXICO PLANTA 3", "giro": "Fabricación de computadoras y equipo periférico", "scian": "334110", "scian3": "334", "etiqueta": "Electrónica", "nivel": "Medio", "color": "#fee08b", "estrato": "251 y más personas"}}, {"type": "Feature", "geometry": {"type": "Point", "coordinates": [-103.27805289, 20.49971654]}, "properties": {"nombre": "SANMINA SCI SYSTEMS DE MEXICO PLANTA 6", "giro": "Fabricación de computadoras y equipo periférico", "scian": "334110", "scian3": "334", "etiqueta": "Electrónica", "nivel": "Medio", "color": "#fee08b", "estrato": "251 y más personas"}}, {"type": "Feature", "geometry": {"type": "Point", "coordinates": [-103.27924457, 20.50260198]}, "properties": {"nombre": "SANMINASCI RSP DE MEXICO", "giro": "Fabricación de productos metálicos forjados y troquelados", "scian": "332110", "scian3": "332", "etiqueta": "Productos metálicos", "nivel": "Medio", "color": "#fee08b", "estrato": "251 y más personas"}}, {"type": "Feature", "geometry": {"type": "Point", "coordinates": [-103.23303364, 20.50587737]}, "properties": {"nombre": "URREA HERRAMIENTAS PROFESIONALES", "giro": "Fabricación de herramientas de mano metálicas sin motor", "scian": "332211", "scian3": "332", "etiqueta": "Productos metálicos", "nivel": "Medio", "color": "#fee08b", "estrato": "251 y más personas"}}, {"type": "Feature", "geometry": {"type": "Point", "coordinates": [-103.3650395, 20.57405861]}, "properties": {"nombre": "WO MANUFACTURING", "giro": "Fabricación de cables de conducción eléctrica", "scian": "335920", "scian3": "335", "etiqueta": "Acc. eléctricos", "nivel": "Medio", "color": "#fee08b", "estrato": "251 y más personas"}}]}